"Schulnummer","Latitude","Longitude","Gemeinden.Kennziffer","Schulname","Grundschulen","PLZ","Ort_parsed","Strasse"
17004,51.2822199805091,10.7369499982972,16065014,"Staatliche Grundschule ""Adolph Diesterweg"" Ebeleben",1,"D-99713","Ebeleben","Adolph-Diesterweg-Straße 7"
40445,50.8450800091238,12.0719699990339,16052000,"Staatliche Integrierte Gesamtschule Gera",1,"D-07549","Gera","Ahornstraße 1-3"
45035,51.1554799886213,11.1338600195636,16068051,"Staatliche Gemeinschaftsschule ""Albert Einstein"" Sömmerda",1,"D-99610","Sömmerda","Albert-Einstein-Straße 29"
30215,50.806569983627,10.2427700023366,16063003,"Christian-Ludwig-Wucke-Schule Staatliches regionales Förderzentrum Bad Salzungen",1,"D-36433","Bad Salzungen","Albert-Schweitzer-Straße 10-12"
15980,50.6525899798854,11.3949599915161,16073077,"Staatliche Grundschule ""Am Roten Berg"" Saalfeld-Gorndorf",1,"D-07318","Saalfeld","Albert-Schweitzer-Straße 130"
25336,50.654550004124,11.3979700167654,16073077,"Staatliche Regelschule ""Albert-Schweitzer"" Saalfeld-Gorndorf",0,"D-07318","Saalfeld","Albert-Schweitzer-Straße 148"
64986,50.6020199882807,10.7088400287129,16054000,"Höhere Berufsfachschule für Gesundheits- und Krankenpflege am SRH Zentralklinikum Suhl",0,"D-98527","Suhl","Albert-Schweitzer-Straße 2"
31224,50.653910003907,11.3969999791109,16073077,"Jettina-Schule Saalfeld-Gorndorf Staatliches regionales Förderzentrum Förderschwerpunkt geistige Entwicklung",1,"D-07318","Saalfeld","Albert-Schweitzer-Straße 41"
16881,51.1542299954008,11.1340699862382,16068051,"Staatliche Grundschule ""Adolph Diesterweg"" Sömmerda",1,"D-99610","Sömmerda","Albert-Schweitzer-Straße 45"
25036,51.5481499822569,10.7652700183751,16062065,"Staatliche Regelschule Niedersachswerfen",0,"D-99768","Harztor","Albertstraße 9a"
62331,51.3682299998441,10.8731199665336,16065067,"Staatliches Berufsschulzentrum Kyffhäuserkreis",0,"D-99706","Sondershausen","Alexander-Puschkin-Promenade 22"
17182,51.3683199795747,10.8750899652369,16065067,"Staatliche Grundschule ""Käthe Kollwitz"" Sondershausen",1,"D-99706","Sondershausen","Alexander-Puschkin-Promenade 22b"
22585,50.8590600177921,10.564710018488,16067019,"Staatliche Regelschule ""Helene Lange"" Friedrichroda",0,"D-99894","Friedrichroda","Alexandrinenstraße 2"
51155,51.0165799926112,11.0263999975409,16051000,"Heinrich-Hertz-Gymnasium Erfurt Staatliches Gymnasium",0,"D-99087","Erfurt","Alfred-Delp-Ring 41"
20767,50.805130014571,9.9810999771492,16063078,"Staatliche Regelschule am Ulsterberg Unterbreizbach",0,"D-36414","Unterbreizbach","Alt Räsa 3"
10478,51.0306599973844,11.5971699690433,16071004,"Staatliche Grundschule Wormstedt",1,"D-99518","Bad Sulza","Alte Brauerei 17a"
11126,50.9430499984618,10.245020040425,16063097,"Staatliche Grundschule Förtha",1,"D-99834","Gerstungen","Alte Eisenacher Straße 55"
23924,50.4498599890852,10.8903000181961,16069058,"Staatliche Regelschule Crock",0,"D-98673","Auengrund","Alte Eisfelder Straße 9"
10855,51.3525299827347,11.1074700165109,16065003,"Kurstadt-Grundschule Bad Frankenhausen Staatliche Grundschule",1,"D-06567","Bad Frankenhausen","Alte Feldstraße 17"
17332,50.3923199839854,11.21510002353,16072024,"Staatliche Grundschule ""Dr. Martin Luther"" Judenbach",1,"D-96524","Föritztal","Alte Handelsstraße 89a"
79005,50.8783699948706,11.5900300124614,16053000,"Freie Waldorfschule Jena",1,"D-07745","Jena","Alte Hauptstraße 15"
24779,50.5266499987462,11.3094800018284,16073028,"Staatliche Regelschule ""Christoph Ullrich von Pappenheim"" Gräfenthal",0,"D-98743","Gräfenthal","Alte Straße 19"
50990,50.6648400056478,10.6675699682289,16066092,"Heinrich-Ehrhardt-Gymnasium Zella-Mehlis Staatliches Gymnasium",0,"D-98544","Zella-Mehlis","Alte Straße 69"
78150,50.9489400037326,11.6029900273322,16053000,"Staatlich anerkanntes Christliches Gymnasium Jena",0,"D-07743","Jena","Altenburger Straße 10"
14942,51.205599997754,10.4449600309343,16064046,"Nikolaischule Mühlhausen Staatliche Grundschule",1,"D-99974","Mühlhausen","Altenburgstraße 51"
64747,50.8349599925964,10.3515100247932,16063099,"Private berufsbildende Schule der Akademie für Gesundheits- und Sozialberufe gGmbH",0,"D-36448","Bad Liebenstein","Altenstein 9"
45237,50.9747200137818,10.3405299830905,16056000,"Oststadtschule Eisenach Staatliche Gemeinschaftsschule",1,"D-99817","Eisenach","Altstadtstraße 30"
14399,51.1189099965239,10.5794400398524,16064058,"Staatliche Grundschule Schönstedt",1,"D-99947","Schönstedt","Am alten Sportplatz 1"
64297,51.301490017819,11.1845299653637,16065088,"Freie berufliche Schule für Therapie, Pädagogik und Pflege",0,"D-06577","An der Schmücke","Am Bahnhof 12-13"
75520,51.3028900051969,11.1863200046058,16065088,"Freie Gemeinschaftsschule ""Armin Mueller-Stahl""",1,"D-06577","An der Schmücke","Am Bahnhof 22/23"
62388,50.5749300124938,10.4268100254363,16066042,"Staatliches Berufsbildungszentrum Meiningen",0,"D-98617","Meiningen","Am Drachenberg 4"
60752,50.6857199970101,10.9436899753956,16070029,"Staatliches Berufsschulzentrum Arnstadt-Ilmenau",0,"D-98693","Ilmenau","Am Ehrenberg 1"
11499,50.939090010216,10.0709099741983,16063103,"Staatliche Grundschule Berka/Werra",1,"D-99837","Werra-Suhl-Tal","Am Felsenkeller 1"
64207,50.8735400069847,12.1110200286429,16052000,"CJD Christophorusschule Gera - Förderberufsschule",0,"D-07546","Gera","Am Ferberturm 72"
60316,51.0192000079058,10.9944200194415,16051000,"Sebastian-Lucius-Schule Erfurt Staatliche Berufsbildende Schule 1",0,"D-99091","Erfurt","Am Flüßchen 10"
16581,50.9316799887138,12.3444400226439,16077043,"Staatliche Grundschule Altkirchen",1,"D-04626","Schmölln","Am Freibad 1"
30365,50.9620200055475,11.8367299585774,16074037,"Staatliches regionales Förderzentrum Hainspitz ""Schule am See""",1,"D-07607","Hainspitz","Am Gerichtsfeld 2"
40041,50.7036200122459,10.7176199884701,16066047,"Staatliches Gymnasium Oberhof Spezialschule für Sport",0,"D-98559","Oberhof","Am Harzwald 3"
17782,50.9085000031202,11.2725400325249,16071003,"Staatliche Grundschule ""Am Hexenberg"" Bad Berka",1,"D-99438","Bad Berka","Am Hexenberg 1"
32078,50.612689983385,10.7128500150111,16054000,"Dombergschule Suhl Staatliches regionales Förderzentrum Förderschwerpunkt geistige Entwicklung",1,"D-98527","Suhl","Am Himmelreich 117"
31387,50.8845299812427,12.3460200113924,16077043,"Staatliches regionales Förderzentrum Schmölln",1,"D-04626","Schmölln","Am Kemnitzgrund 10"
12300,50.8214399827744,12.2176100091159,16076062,"Staatliche Grundschule Rückersdorf",1,"D-07580","Rückersdorf","Am Kirchberg 5"
45480,51.3677899918369,11.3029000401976,16065086,"Johann-Gottfried-Borlach-Schule Artern Staatliche Gemeinschaftsschule",1,"D-06556","Artern","Am Königstuhl 9"
64657,50.9907200192058,11.0411900333321,16051000,"Bildungswerk für Gesundheitsberufe e.V. Erfurt, Höhere Berufsfachschule und Berufsfachschule",0,"D-99085","Erfurt","Am Kühlhaus 27"
24238,50.8054400192599,11.5806799994692,16074044,"Staatliche Regelschule ""Johann Wilhelm Heimbürge"" Kahla",0,"D-07768","Kahla","Am Langen Bürgel 19"
12690,50.9018300198493,10.4663700100344,16067072,"Staatliche Grundschule Emsetal",1,"D-99880","Waltershausen","Am Langen Feld 10"
50763,50.6500899934443,11.393119996131,16073077,"Staatliches Gymnasium ""Erasmus Reinhold"" Saalfeld",0,"D-07318","Saalfeld","Am Lerchenbühl 17"
16054,50.5655934,11.453802906601,16073106,"Staatliche Grundschule Leutenberg",1,"D-07338","Leutenberg","Am Löhmberg 23a"
15167,50.5322999882196,11.2179600127125,16073077,"Staatliche Grundschule Schmiedefeld",1,"D-07318","Saalfeld","Am Markt 7"
10421,51.0869200020502,11.6208999751233,16071004,"Staatliche Grundschule ""Am kleinen Weinberg"" Bad Sulza",1,"D-99518","Bad Sulza","Am Mühlacker 2"
10602,50.8328099925224,10.9438700186759,16070004,"Staatliche Grundschule ""Johann Sebastian Bach"" Arnstadt",1,"D-99310","Arnstadt","Am Plan 1"
75010,50.9638600009325,11.0573700401268,16051000,"John F. Kennedy School Erfurt anerkannte Gemeinschaftsschule in freier Trägerschaft",1,"D-99099","Erfurt","Am Rabenhügel 10"
14879,51.3284400158228,10.4389799621138,1,"Staatliche Grundschule Hüpstedt",1,"D-99976","Dünwald","Am Rasenweg 4"
45420,51.3284400158228,10.4389799621138,16064014,"Staatliche Gemeinschaftsschule Hüpstedt ""Dünwaldschule""",1,"D-99976","Dünwald","Am Rasenweg 4"
21042,50.9505300088555,10.3968400277183,16063092,"Staatliche Regelschule Wutha-Farnroda",0,"D-99848","Wutha-Farnroda","Am Rotberg 33"
64538,51.0116599830853,11.0293899900417,16051000,"Ludwig Fresenius Schulen Erfurt - private berufsbildende Schule",0,"D-99086","Erfurt","Am Roten Berg 7"
31447,51.1595799965596,11.1221899795915,16068051,"Rothenbachschule Sömmerda Staatliches regionales Förderzentrum",1,"D-99610","Sömmerda","Am Rothenbach 36"
70288,50.643839985432,12.1798500382248,16076022,"Diakonieverein Carolinenfeld e.V.Regionales Förderzentrum Förderschwerpunkt Geistige Entwicklung",1,"D-07973","Greiz","Am Salzacker 2"
24808,51.5086700029246,10.7782400077108,16062041,"Staatliche Regelschule ""Gotthold Ephraim Lessing"" Nordhausen",0,"D-99734","Nordhausen","Am Salzagraben 4"
24328,51.1085500061086,10.5074099872761,16064076,"Staatliche Regelschule ""Am Nationalpark Hainich"" Weberstedt",0,"D-99991","Unstrut-Hainich","Am Schloss 11a"
16041,50.6531500167461,11.4870600083317,16073111,"Friedrich-Herthum-Grundschule Könitz Staatliche Grundschule",1,"D-07333","Unterwellenborn","Am Schulberg 12"
12827,50.9226100151067,12.1546400395011,16076008,"Staatliche Grundschule Brahmenau",1,"D-07554","Brahmenau","Am Schulberg 4"
16608,50.8931190822854,12.2667363069951,16077026,"Staatliche Grundschule ""Theodor Körner"" Großstechau",1,"D-04626","Löbichau","Am Schulberg 6"
45510,50.7867500096498,10.4062300223886,16066074,"Staatliche Gemeinschaftsschule Trusetal",1,"D-98596","Brotterode-Trusetal","Am Schulhof 3"
12747,50.8989899795963,10.5554399688521,16067072,"Staatliche Grundschule ""Friedrich Holbein"" Waltershausen",1,"D-99880","Waltershausen","Am Schulplatz 6"
40504,50.9630899973973,11.0472799889032,16051000,"Staatliche Kooperative Gesamtschule ""Am Schwemmbach"" Erfurt",1,"D-99099","Erfurt","Am Schwemmbach 10"
22542,50.9972799899975,10.6952399717156,16067091,"Nessetalschule Warza Staatliche Regelschule",0,"D-99869","Nessetal","Am Schwimmbad 5"
12524,50.9972799899975,10.6952399717156,16067091,"Staatliche Grundschule Goldbach",1,"D-99869","Nessetal","Am Schwimmbad 5"
25571,50.7183100100226,10.4427099928459,16066063,"Staatliche Regelschule Schmalkalden",0,"D-98574","Schmalkalden","Am Siechenrasen 21"
20230,51.0835200087556,11.6230599915716,16071004,"Toskana-Schule Bad Sulza Staatliche Regelschule",0,"D-99518","Bad Sulza","Am Sportplatz 4"
76129,51.1667100205862,10.5121699862704,16064046,"THEPRA Grundschule Mühlhausen, OT Seebach",1,"D-99998","Mühlhausen","Am Stadtweg 2"
11263,50.9148000091849,10.4183500029232,16063071,"Staatliche Grundschule ""Am Wartberg"" Seebach",1,"D-99846","Seebach","Am Stein 3"
40625,50.6890800086265,10.9190699788365,1,"Ilmenau-Kolleg",1,"D-98693","Ilmenau","Am Technikum 6"
12493,50.9441100158468,10.7004899767695,16067029,"Staatliche Grundschule ""Josias Friedrich Löffler"" Gotha",1,"D-99867","Gotha","Am Tivoli 18"
64433,50.6946400183694,10.9358799694739,16070029,"GAW gGmbH, Fachschule, Höhere Berufsfachschule und Berufsfachschule für Gesundheit und Soziales",0,"D-98693","Ilmenau","Am Vogelherd 50"
12390,50.7791000142596,11.9939499869915,16076088,"Staatliche Grundschule Frießnitz",1,"D-07570","Harth-Pöllnitz","Am Wachhügel 14"
25652,50.8735599978238,12.2858500165333,16077043,"Staatliche Regelschule Nöbdenitz",0,"D-04626","Schmölln","Am Wald 17"
75024,51.2334300117723,11.2622799963049,16068034,"Freie Gemeinschaftsschule am Windberg",0,"D-99625","Kölleda","Am Windberg 1"
76194,51.2334300117723,11.2622799963049,1,"IGEL Grundschule in freier Trägerschaft",1,"D-99625","Kölleda","Am Windberg 1"
14446,50.4643199874388,11.5295499710038,16075133,"Staatliche Grundschule Wurzbach",1,"D-07343","Wurzbach","Am Wurzbächle 11"
51395,50.9757100003658,11.3271600340154,16055000,"Staatliches Gymnasium ""Johann Wolfgang v. Goethe"" Weimar",0,"D-99423","Weimar","Amalienstraße 4"
51291,50.9050599862379,11.5695199983053,16053000,"Staatliches Gymnasium ""Ernst Abbe"" Jena",0,"D-07745","Jena","Ammerbacher Straße 21"
50567,51.2119999999236,10.4555199716499,16064046,"Tilesius-Gymnasium Mühlhausen Staatliches Gymnasium",0,"D-99974","Mühlhausen","An der Burg 19"
10781,50.7363899847196,11.0371099743234,16070048,"Staatliche Grundschule ""Karl-Friedrich-Wilhelm-Wander"" Dörnfeld",1,"D-99326","Stadtilm","An der Linde 18"
17740,50.6642000054308,10.6574400191463,16066092,"Staatliche Grundschule ""Friedrich Schiller"" Zella-Mehlis",1,"D-98544","Zella-Mehlis","An der Schillerschule 1"
45793,50.3139799927892,11.2410300277365,16072024,"Staatliche Gemeinschaftsschule ""Joseph Meyer"" Neuhaus-Schierschnitz",1,"D-96524","Föritztal -Schierschnitz","An der Schule 2-4"
24478,50.3960711109548,10.5444510161305,16069062,"Herzog Bernhard-Schule Staatliche Regelschule Römhild",0,"D-98630","Römhild","An der Spring 3"
16924,51.1344899847798,11.2349799700244,16068056,"Staatliche Grundschule Vogelsberg",1,"D-99610","Vogelsberg","An der Sprötauer Straße 10"
76001,50.9504000055373,10.6806200047399,16067029,"Evangelische Grundschule Gotha",1,"D-99867","Gotha","An der Wolfgangwiese 17-19"
11147,50.6654800058647,10.0928699737847,16063023,"Staatliche Grundschule Empfertshausen",1,"D-36452","Empfertshausen","Andenhäuser Straße 2"
12507,50.9310899865493,10.6732799721292,16067029,"Staatliche Grundschule ""Erich Kästner"" Gotha",1,"D-99867","Gotha","Anger 8"
31207,50.6926999849699,11.32504997371,16073076,"Staatliches regionales Förderzentrum ""Johann Heinrich Pestalozzi"" Rudolstadt",1,"D-07407","Rudolstadt","Anne-Frank-Straße 7-9"
15767,50.7195799940823,11.3438100141211,16073076,"Staatliche Grundschule ""Anton Sommer"" Rudolstadt",1,"D-07407","Rudolstadt","Anton-Sommer-Straße 59"
45810,50.5098900061612,11.1480800021198,16072013,"Staatliche Gemeinschaftsschule ""Am Rennsteig"" Neuhaus am Rennweg",1,"D-98724","Neuhaus am Rennweg","Apelsbergstraße 58"
17269,50.5098900061612,11.1480800021198,16072013,"Staatliche Grundschule Neuhaus",1,"D-98724","Neuhaus am Rennweg","Apelsbergstraße 58"
50627,50.5113300171268,11.1482899687944,16072013,"Staatliches Gymnasium Neuhaus am Rennweg",0,"D-98724","Neuhaus am Rennweg","Apelsbergstraße 62"
15933,50.6502300131368,11.3628100284202,16073077,"Staatliche Grundschule ""Caspar Aquila"" Saalfeld",1,"D-07318","Saalfeld","Aquilastraße 3"
64302,50.6088400076185,10.68226998238,16054000,"Private Fachschule für Wirtschaft und Soziales Suhl, Staatlich genehmigte/anerkannte berufsbildende Ersatzschule",0,"D-98529","Suhl","Auenstraße 3-5"
18547,50.9849800080922,11.0224500256695,16051000,"Moritzschule Erfurt Staatliche Grundschule",1,"D-99089","Erfurt","Auenstraße 77"
32051,50.6035599953512,10.6731799760243,16054000,"Staatliches regionales Förderzentrum Suhl",1,"D-98529","Suhl","Auenstraße 86"
12793,50.8346400134427,10.6641499840953,16067092,"Staatliche Grundschule ""Dr. Louis Mayer"" Georgenthal",1,"D-99887","Georgenthal","Auestraße 36"
30049,51.0189000195912,11.5011400131048,16071001,"Staatliches regionales Förderzentrum Apolda",1,"D-99510","Apolda","Auf dem Angespanne 7"
15640,50.7278100171721,11.7147699984325,16075073,"Staatliche Grundschule Neunhofen",1,"D-07806","Neustadt an der Orla","Auf dem Dohlenberg 3"
31051,51.5037699842377,10.8015499966226,16062041,"Staatliches regionales Förderzentrum ""St. Martin"" Nordhausen Förderschwerpunkt geistige Entwicklung",1,"D-99734","Nordhausen","August-Bebel-Platz 32"
40522,50.9309899904444,11.5795200278887,16053000,"Staatliche Integrierte Gesamtschule ""Grete Unrein"" Jena",1,"D-07743","Jena","August-Bebel-Straße 1"
25131,50.5782399841483,11.8152000344429,16075098,"Staatliche Regelschule ""Johann Wolfgang von Goethe"" Schleiz",0,"D-07907","Schleiz","August-Bebel-Straße 10"
19060,50.9313900167734,11.5737999657047,16053000,"Westschule Jena Staatliche Grundschule",1,"D-07743","Jena","August-Bebel-Straße 23"
17975,51.2381100055008,10.2431200306132,16061027,"Staatliche Grundschule Effelder",1,"D-37359","Effelder","Augustusstraße 23"
20273,51.024179989949,11.5124099848384,16071001,"Pestalozzischule Apolda Staatliche Regelschule",0,"D-99510","Apolda","Bachstraße 23"
16071,50.6460499999328,11.4431000274807,16073111,"Staatliche Grundschule Kamsdorf",1,"D-07333","Unterwellenborn","Bäckerweg 9"
16564,50.7231899959609,10.3520199797824,16066063,"Staatliche Grundschule Wernshausen",1,"D-98574","Schmalkalden","Bahnhofsallee 13"
50120,51.3523700141126,11.0984400245819,16065003,"Kyffhäusergymnasium Bad Frankenhausen, Staatliches Gymnasium",0,"D-06567","Bad Frankenhausen","Bahnhofstr. 5a"
15827,50.6617700078812,11.0999900061171,16073112,"Staatliche Grundschule Königsee",1,"D-07426","Königsee","Bahnhofstraße 1"
64687,51.0681900107619,10.9544899738182,16068057,"Staatlich genehmigte Berufsschule am Morgenberg",0,"D-99189","Walschleben","Bahnhofstraße 12"
23400,50.7502000083915,12.1608699728553,16076004,"Staatliche Regelschule Berga",0,"D-07980","Berga","Bahnhofstraße 15"
13048,50.7502000083915,12.1608699728553,16076004,"Staatliche Grundschule Berga",1,"D-07980","Berga","Bahnhofstraße 15"
50390,51.3753599819613,10.1248799590975,16061045,"Staatliches Gymnasium ""Johann Georg Lingemann"" Heiligenstadt",0,"D-37308","Heilbad Heiligenstadt","Bahnhofstraße 17"
18277,51.3894301750541,10.237561958941,16061107,"Staatliche Grundschule Wingerode",1,"D-37327","Wingerode","Bahnhofstraße 2"
65038,50.9403599942757,10.711860028427,16067029,"IPB-Höhere Berufsfachschule und Berufsfachschule für Pflegeberufe der VHS-Bildungswerk GmbH",0,"D-99867","Gotha","Bahnhofstraße 20"
50597,51.1455706913909,10.5614549549508,16064076,"Friedrich-Ludwig-Jahn-Gymnasium Großengottern Staatliches Gymnasium",0,"D-99991","Unstrut-Hainich","Bahnhofstraße 34"
16235,50.4911100168205,11.871400024682,16075132,"Staatliche Grundschule Tanna",1,"D-07922","Tanna","Bahnhofstraße 39"
45913,50.4911100168205,11.871400024682,16075132,"Staatliche Gemeinschaftsschule Tanna",1,"D-07922","Tanna","Bahnhofstraße 39"
11112,50.70935998145,10.1230399637125,16063015,"Staatliche Grundschule Dermbach",1,"D-36466","Dermbach","Bahnhofstraße 54"
76121,51.1030500107925,10.6416100406282,16064003,"THEPRA Grundschule Bad Langensalza",1,"D-99947","Bad Langensalza","Bahnhofstraße 6"
65754,50.6501000098186,11.3709600043348,16073077,"Berufsbildende Schule Gesundheit und Soziales in freier Trägerschaft",0,"D-07318","Saalfeld","Bahnhofstraße 6a"
26327,51.3767499948744,10.4194600183607,16061074,"Staatliche Regelschule Niederorschel",0,"D-37355","Niederorschel","Bahnhofstraße 70"
18246,51.3767499948744,10.4194600183607,16061074,"Staatliche Grundschule Niederorschel",1,"D-37355","Niederorschel","Bahnhofstraße 70"
26253,51.3222700130764,10.3148100293776,16061118,"Staatliche Regelschule ""Johann Wolf"" Dingelstädt",0,"D-37351","Dingelstädt","Bahnhofstraße 79"
20597,51.3695599983305,10.8516499730067,16065067,"Staatliche Regelschule Franzberg",0,"D-99706","Sondershausen","Bahnhofstraße 8"
15783,50.6827100136703,11.2660500087152,16073005,"Staatliche Grundschule ""Friedrich Fröbel"" Bad Blankenburg",1,"D-07422","Bad Blankenburg","Bähringstraße 10"
25199,50.6829400130934,11.2644899688961,16073005,"Staatliche Geschwister-Scholl-Regelschule Bad Blankenburg",0,"D-07422","Bad Blankenburg","Bähringstraße 4"
18606,50.9761200011597,11.0306699904756,16051000,"Barfüßerschule Erfurt Staatliche Grundschule",1,"D-99084","Erfurt","Barfüßerstraße 21"
25356,50.71729999069,11.3239399582725,16073076,"Staatliche Regelschule ""Friedrich Schiller"" Rudolstadt",0,"D-07407","Rudolstadt","Bayreuther Platz 4"
65288,51.2246800173189,10.4314000394342,16064046,"Bildungszentrum Handel/Gewerbe/Freie Berufe e.V. Berufsbildende Schule",0,"D-99974","Mühlhausen","Bei der Breitsülze 1"
70918,51.1822799924678,10.788770025032,16064009,"THEPRA-Förderzentrum ""Am Fernebach""",1,"D-99955","Bruchstedt","Beim Bahnhof 40"
79201,50.9630899973973,11.3393500034415,16055000,"Thuringia International School Weimar",1,"D-99425","Weimar","Belvederer Allee 40"
50300,50.9455299940638,10.7005199839829,16067029,"Ernestinum Gotha Staatliches Gymnasium",0,"D-99867","Gotha","Bergallee 8"
24028,50.6790500137392,10.9228799729249,16070029,"Staatliche Regelschule ""Geschwister Scholl"" Ilmenau",0,"D-98693","Ilmenau","Bergrat-Mahr-Straße 1"
13754,50.6793500020538,10.9246600377023,16070029,"Staatliche Grundschule ""Am Stollen"" Ilmenau",1,"D-98693","Ilmenau","Bergrat-Voigt-Straße 51"
18217,51.4721399925054,10.2661199729266,16061114,"Staatliche Grundschule Teistungen",1,"D-37339","Teistungen","Bergstraße 1"
51018,50.8999199936632,11.2778900336837,16071003,"Marie-Curie-Gymnasium Staatliches Gymnasium Bad Berka",0,"D-99438","Bad Berka","Bergstraße 9"
10945,51.3078499964009,11.4030300040743,16065087,"Staatliche Grundschule Bottendorf",1,"D-06571","Roßleben-Wiehe","Bergstraße 9b"
31831,51.0041200001743,11.0067699993992,16051000,"Staatliches regionales Förderzentrum Erfurt-Nord",1,"D-99091","Erfurt","Berliner Straße 1"
60482,50.8957999948858,12.0771999713393,16052000,"Staatliche Berufsbildende Schule Technik",0,"D-07546","Gera","Berliner Straße 157"
18713,51.0045400173424,11.0063700149797,16051000,"Grundschule am Berliner Platz Erfurt Staatliche Grundschule",1,"D-99091","Erfurt","Berliner Straße 1a"
78420,50.5656400139283,10.4207800004728,16066042,"Evangelisches Gymnasium Meiningen",0,"D-98617","Meiningen","Berliner Straße 27"
50207,50.8919099955316,10.3647199880168,16063066,"Staatliches Gymnasium ""Albert Schweitzer"" Ruhla",0,"D-99842","Ruhla","Bermbachtal 24"
65394,50.5725299802481,10.4158699654117,16066042,"Staatlich anerkannte Höhere Berufsfachschule für Gesundheits- und Pflegeberufe in Meiningen, Träger: GAW-Institut für berufliche Bildung gemeinnützige GmbH",0,"D-98617","Meiningen","Bernhardstraße 3"
16330,50.7073399846942,10.2109799581631,16066061,"Staatliche Grundschule Roßdorf",1,"D-98590","Roßdorf","Bernshäuser Straße 18"
60239,50.9737500180368,10.9949500071793,16051000,"Walter-Gropius-Schule Erfurt Staatliche Berufsbildende Schule 7",0,"D-99092","Erfurt","Binderslebener Landstraße 162"
50644,51.5051599971509,10.7930799996448,16062041,"Staatliches Gymnasium ""Wilhelm von Humboldt"" Nordhausen",0,"D-99734","Nordhausen","Blasiistraße 16"
18670,50.9834700082352,11.0091300080573,16051000,"EUROPA-SCHULE Jacob-und-Wilhelm-Grimm-Schule Erfurt Staatliche Grundschule",1,"D-99092","Erfurt","Blumenstraße 20"
19417,50.9735799911309,11.3435100258065,16055000,"Staatliche Grundschule ""Louis Fürnberg"" Weimar",1,"D-99425","Weimar","Bodelschwinghstraße 78"
20004,51.0039899968561,12.4305400217094,16077001,"Dietrich-Bonhoeffer-Schule Altenburg Staatliche Regelschule",0,"D-04600","Altenburg","Bonhoefferstraße 1"
19361,50.9963799831441,11.3145300146726,16055000,"Staatliche Grundschule ""Lucas Cranach"" Weimar",1,"D-99427","Weimar","Bonhoefferstraße 26"
32095,50.9963799831441,11.3145300146726,16055000,"Diesterwegschule Weimar Staatliches überregionales Förderzentrum Förderschwerpunkt Sehen",1,"D-99427","Weimar","Bonhoefferstraße 26"
32112,50.9964399975708,11.3084300008176,16055000,"Staatliches regionales Förderzentrum Weimar",1,"D-99427","Weimar","Bonhoefferstraße 46"
24576,51.1073700017796,10.6449499775865,16064003,"Staatliche Regelschule ""Wiebeckschule"" Bad Langensalza",0,"D-99947","Bad Langensalza","Bornklagengasse 14-16"
16264,50.5737099845771,11.804040033279,16075098,"Staatliche Grundschule ""Johann Friedrich Böttger"" Schleiz",1,"D-07907","Schleiz","Böttgerstraße 6"
45417,51.221790020923,10.3089599638753,16064055,"Staatliche Gemeinschaftsschule Rodeberg",1,"D-99976","Rodeberg","Brandstraße 5"
21758,50.7910000117454,12.2406899986047,16076069,"Staatliche Regelschule ""Im Ländereck"" Seelingstädt",0,"D-07580","Seelingstädt","Braunichswalder Weg 60"
30546,50.9541200198951,10.7057200328939,16067029,"Lucas-Cranach-Schule Staatliches regionales Förderzentrum Gotha",1,"D-99867","Gotha","Breite Gasse 5"
11919,51.0930999792614,11.0980699635568,16068021,"Staatliche Grundschule Großrudestedt",1,"D-99195","Großrudestedt","Breite Straße 2"
70648,50.4209500087523,10.733890016905,16069024,"Albert-Schweitzer-Förderschule Hildburghausen Staatlich anerkannte Ersatzschule",1,"D-98646","Hildburghausen","Breiter Rasen 2"
14189,51.1182199982545,10.647149975713,16064003,"Staatliche Grundschule ""Sonnenhof"" Bad Langensalza",1,"D-99947","Bad Langensalza","Brentanostraße 1"
45433,51.0533000207754,10.6802099620366,16064003,"Brückenschule Aschara Staatliche Gemeinschaftsschule",1,"D-99947","Bad Langensalza","Brückenstraße 12"
30768,50.8000300036744,11.5917899606711,16074044,"Staatliches regionales Förderzentrum ""Siegfried Schaffner"" Kahla",1,"D-07768","Kahla","Brückenstraße 1a"
21161,51.0081400028468,11.6795199884472,16074011,"Staatliche Regelschule ""Unter den Dornburger Schlössern"" Dorndorf",0,"D-07774","Dornburg-Camburg","Brückenstraße 38"
14822,51.1771399998931,10.2784299712062,16064074,"Staatliche Grundschule Katharinenberg",1,"D-99988","Südeichsfeld","Brunkelstraße 1a"
12434,50.9440199942067,10.6875899763254,16067029,"Ludwig-Bechstein-Schule Gotha, Staatliche Grundschule",1,"D-99867","Gotha","Brunnenstraße 46"
14914,51.2051000172296,10.4645799707922,16064046,"Martinischule Mühlhausen Staatliche Grundschule",1,"D-99974","Mühlhausen","Brunnenstraße 66/67"
45567,50.9610500098025,10.7105399624959,16067029,"Staatliche Gemeinschaftsschule Gotha",1,"D-99867","Gotha","Bufleber Straße 13"
12417,50.9610500098025,10.7105399624959,1,"Brüder-Grimm-Schule Gotha Staatliche Grundschule",1,"D-99867","Gotha","Bufleber Straße 13"
26739,51.0120400185753,10.9999400055967,16051000,"Regelschule an der Geraaue Staatliche Regelschule Erfurt",0,"D-99091","Erfurt","Bukarester Straße 3"
18726,51.0125799807778,10.999689973425,16051000,"Grundschule an der Geraaue Staatliche Grundschule Erfurt",1,"D-99091","Erfurt","Bukarester Straße 4"
14103,50.8039000121895,11.5897199658629,16074044,"Altstadtschule Staatliche Grundschule Kahla",1,"D-07768","Kahla","Burg 20"
79318,50.9193800068085,11.5810899583535,16053000,"UniverSaale Jena Freie Gesamtschule",1,"D-07745","Jena","Burgauer Weg 1a"
14043,50.9739000121941,11.674000002292,16074026,"Staatliche Grundschule ""Im Gleistal"" Golmsdorf",1,"D-07751","Golmsdorf","Bürgelsche Straße 16"
22182,50.8979800021732,10.769200041317,16067089,"Staatliche Regelschule ""Burgenland"" Wechmar",0,"D-99869","Drei Gleichen","Burgenlandallee 14"
12583,50.8983799865927,10.7686599952954,16067089,"Staatliche Grundschule ""Burgenland"" Wechmar",1,"D-99869","Drei Gleichen","Burgenlandallee 16"
64477,50.9485300029388,10.6955500183141,16067029,"GoBi gGmbH Private Medizinische Berufsfachschule",0,"D-99867","Gotha","Bürgeraue 2"
12807,50.7893699830348,10.6099299670243,16067065,"Staatliche Grundschule ""Am Rennsteig"" Tambach-Dietharz",1,"D-99897","Tambach-Dietharz","Burgstallstraße 33"
22209,50.7893699830348,10.6099299670243,16067065,"Staatliche Regelschule ""Am Rennsteig"" Tambach-Dietharz",0,"D-99897","Tambach-Dietharz","Burgstallstraße 33"
51198,50.8762000039575,12.0822599586483,16052000,"Rutheneum seit 1608 Staatliches Gymnasium Gera",0,"D-07545","Gera","Burgstraße 2"
64387,51.0009500063029,11.3339000061778,16055000,"Deutsches Erwachsenen-Bildungswerk in Thüringen, gemeinnützige Schulträger-GmbH, Staatlich genehmigte Höhere Berufsfachschule für Pflegeberufe, Staatlich anerkannte Höhere Berufsfachschule für Ergotherapie",0,"D-99427","Weimar","Buttelstedter Straße 90"
24285,51.1571300081709,10.8387399980979,16064004,"Novalisschule Bad Tennstedt Staatliche Regelschule",0,"D-99955","Bad Tennstedt","C.-A.-Just-Straße 2"
64404,50.6972299845411,11.5976199934248,16075085,"Euro Akademie Pößneck, Berufsbildende Ersatzschule",0,"D-07381","Pößneck","Carl-Gustav-Vogel-Straße 13"
18968,50.9040099852271,12.0974600371427,16052000,"Tabaluga-Grundschule Gera Staatliche Grundschule",1,"D-07552","Gera","Carl-Zeiß-Straße 20"
12837,50.6517700202073,12.1968200393938,16076022,"Staatliche Grundschule ""Gotthold Ephraim Lessing"" Greiz",1,"D-07973","Greiz","Carolinenstraße 39"
26163,50.8587200058898,11.3402300194559,16071008,"Staatliche Regelschule Blankenhain",0,"D-99444","Blankenhain","Christian-Speck-Straße 2"
76538,51.0304199815869,11.5091899929145,16071001,"Evangelische Grundschule Apolda",1,"D-99510","Apolda","Christian-Zimmermann-Straße 63"
16895,51.1603000020423,10.9913400053006,16068053,"Grundschule im Schlosspark Staatliche Grundschule Straußfurt",1,"D-99634","Straußfurt","Clara-Zetkin-Straße 22"
50314,50.9437500131054,10.7302899894911,16067029,"Staatliches Gymnasium ""Gustav Freytag"" Gotha",0,"D-99867","Gotha","Clara-Zetkin-Straße 58"
51215,50.8808199832592,12.0823600385721,16052000,"Zabel-Gymnasium Gera Staatliches Gymnasium",0,"D-07545","Gera","Clara-Zetkin-Straße 7"
11202,50.8079799873792,10.2205499961136,16063003,"Schule ""An den Beeten"" Staatliche Grundschule Bad Salzungen",1,"D-36433","Bad Salzungen","Clara-Zetkin-Straße 8"
18757,50.9487299951486,11.0807299851816,16051000,"Astrid-Lindgren-Schule Erfurt Staatliche Grundschule",1,"D-99097","Erfurt","Curiestraße 29"
65381,50.5816300029781,10.4118999607917,16066042,"Höhere Berufsfachschule für die Notfallsanitäterausbildung, DRK-Bildungswerk Thüringen gGmbH",0,"D-98617","Meiningen","Dammstraße 28"
19001,50.9342300151168,11.5977700294916,16053000,"Staatliche Grundschule ""Heinrich Heine"" Jena",1,"D-07749","Jena","Dammstraße 37"
76284,50.9357699802778,11.5990999860685,16053000,"DUALINGO-bilinguale Ganztagsgrundschule Jena, DRK-Kreisverband Jena-Eisenberg-Stadtroda e.V.",1,"D-07749","Jena","Dammstraße 43"
51621,50.3533500015518,11.174539994064,16072018,"Staatliches Gymnasium ""Hermann Pistor"" Sonneberg",0,"D-96515","Sonneberg","Dammstraße 50"
26810,50.8637799931987,12.0747399665763,16052000,"Debschwitzer Schule Gera Staatliche Regelschule",0,"D-07548","Gera","Darwinstraße 9"
50270,50.8852600030998,12.1025699805946,16052000,"Osterlandgymnasium Staatliches Gymnasium Gera",0,"D-07546","Gera","Dehmelstraße 19"
19105,50.9214199944034,11.5678700206652,16053000,"Südschule Jena Staatliche Grundschule",1,"D-07745","Jena","Doebereinerstraße 20"
76118,51.1004100046588,10.6301600256144,16064003,"Evangelische Grundschule Bad Langensalza",1,"D-99947","Bad Langensalza","Döppingstraße 1"
17509,50.8257999973492,11.8172100148244,16074066,"Tälerschule Ottendorf Staatliche Grundschule",1,"D-07646","Ottendorf","Dorfstraße 100"
16667,50.8390600005347,12.3206199949238,16077047,"Staatliche Grundschule Thonhausen",1,"D-04626","Thonhausen","Dorfstraße 16"
45507,50.4281599961352,10.4588399596786,16066094,"Staatliche Gemeinschaftsschule Grabfeld",1,"D-98631","Grabfeld","Dorfstraße 4"
13185,51.2493500119305,10.0930100353868,16061075,"Staatliche Grundschule ""An der Gobert"" Pfaffschwende",1,"D-37308","Pfaffschwende","Dorfstraße 50a"
76601,50.8557199970147,11.4599299670476,16074057,"Freie Ganztagsgrundschule Milda",1,"D-07751","Milda","Dorfstraße 92"
14086,50.8557199970147,11.4599299670476,16074057,"Staatliche Grundschule ""Kleine Europäer"" Milda",1,"D-07751","Milda","Dorfstraße 92"
78403,50.8557199970147,11.4599299670476,16074057,"Freie Ganztagsschule Milda Gymnasiale Oberstufe",0,"D-07751","Milda","Dorfstraße 92"
77049,50.8557199970147,11.4599299670476,16074057,"Freie Ganztagsschule Milda Staatlich anerkannte Regelschule in freier Trägerschaft",0,"D-07751","Milda","Dorfstraße 92"
19027,50.9386600185831,11.5890100186639,16053000,"Nordschule Jena Staatliche Grundschule",1,"D-07743","Jena","Dornburger Straße 31"
76464,50.6287600196101,10.7073499777854,16054000,"Evangelische Grundschule Suhl",1,"D-98528","Suhl","Dörrenbachstraße 25"
19229,50.6287600196101,10.7073499777854,16054000,"Ringbergschule Suhl Staatliche Grundschule",1,"D-98528","Suhl","Dörrenbachstraße 25"
79124,50.9373099873482,10.9858900080369,16051000,"Freie Waldorfschule Erfurt",1,"D-99094","Erfurt","Dorstbornstraße 5"
12720,50.8863499857887,10.5736400143121,16067072,"Staatliche Grundschule ""GutsMuths"" Waltershausen",1,"D-99880","Waltershausen","Dr.-Salvador-Allende-Straße 7"
23293,50.6557899809702,12.2010499668312,16076022,"Staatliche Regelschule ""Gotthold Ephraim Lessing"" Greiz",0,"D-07973","Greiz","Dr.-Scheube-Straße 4"
18953,50.8993799895511,12.0874900147726,16052000,"Grundschule ""Am Bieblacher Hang"" Gera Staatliche Grundschule",1,"D-07546","Gera","Dr.-Theodor-Neubauer-Straße 1"
50060,51.0254899975963,11.5089900007048,16071001,"Bergschule Apolda Staatliches Gymnasium",0,"D-99510","Apolda","Dr.-Theodor-Neubauer-Straße 10a"
26417,50.6869300085525,12.0152599699866,16076087,"Staatliche Regelschule ""Georg Kresse"" Triebes",0,"D-07950","Zeulenroda-Triebes","Dr.-Wilhelm-Külz-Straße 19a"
18396,50.6869300085525,12.0152599699866,16076087,"Staatliche Grundschule Triebes",1,"D-07950","Zeulenroda-Triebes","Dr.-Wilhelm-Külz-Straße 19a"
51304,50.9521599956565,11.6094099784314,16053000,"Carl-Zeiss-Gymnasium Jena Staatliches Gymnasium mit math.-nw. Spezialklassen",0,"D-07743","Jena","E.-Kuithan-Straße 7"
50583,51.2169099930753,10.2209700132818,16064074,"Käthe-Kollwitz-Gymnasium Lengenfeld unterm Stein Staatliches Gymnasium",0,"D-99976","Südeichsfeld unterm St","Effelder Weg 2"
18833,50.8558300094939,12.0688299704664,16052000,"Grundschule ""Saarbachtal"" Gera Staatliche Grundschule",1,"D-07548","Gera","Eiselstraße 110"
45597,50.7834200052467,10.1261100033885,16063015,"Staatliche Gemeinschaftsschule Feldatal Stadtlengsfeld",0,"D-36466","Dermbach","Eisenacher Straße 1 a"
11262,50.7834200052467,10.1261100033885,1,"Staatliche Grundschule Stadtlengsfeld",1,"D-36466","Dermbach","Eisenacher Straße 1a"
50297,50.9509600004884,10.6953699750339,16067029,"Arnoldischule Gotha Staatliches Gymnasium",0,"D-99867","Gotha","Eisenacher Straße 5"
17287,50.35377001872,11.1839800286963,16072018,"Staatliche Grundschule Sonneberg-Grube",1,"D-96515","Sonneberg","Eisenbahnstraße 16"
23923,50.5208899967935,10.8758699851464,16069042,"Staatliche Regelschule Schönbrunn",0,"D-98667","Schleusegrund","Eisfelder Straße 19"
70275,50.9257000037123,12.0017399601647,16076003,"Privates Förderschulzentrum Wendepunkt Bad Köstritz",1,"D-07586","Bad Köstritz","Eleonorenstraße 20a"
24456,50.5666799985648,10.4191300228327,16066042,"Schule am Pulverrasen Meiningen Staatliche Regelschule",0,"D-98617","Meiningen","Elisabeth-Schumacher-Straße 8"
51064,51.4226599835896,10.3649599619047,16061115,"Staatliches Gymnasium ""Marie Curie"" Worbis",0,"D-37339","Leinefelde-Worbis","Elisabethstraße 23"
26343,51.4229100157613,10.3661299917689,16061115,"Staatliche Regelschule Worbis",0,"D-37339","Leinefelde-Worbis","Elisabethstraße 24"
18126,51.4229100157613,10.3661299917689,16061115,"Staatliche Grundschule ""Am Ohmgebirge"" Worbis",1,"D-37339","Leinefelde-Worbis","Elisabethstraße 24"
64957,50.8817600137004,11.614250024601,16053000,"Freie Berufsbildende Schule Jena",0,"D-07747","Jena","Emil-Wölk-Str. 11"
45093,50.8817600137004,11.614250024601,16053000,"Werkstattschule Jena Staatliche Gemeinschaftsschule",1,"D-07747","Jena","Emil-Wölk-Straße 11"
50327,50.8553200125952,10.5754999586267,16067019,"Perthes-Gymnasium Staatliches Gymnasium Friedrichroda",0,"D-99894","Friedrichroda","Engelsbacher Weg 13"
60419,50.8737200083554,12.0788800400118,16052000,"Staatliche Berufsbildende Schule Wirtschaft/Verwaltung""Dr. Eduard Amthor""",0,"D-07545","Gera","Enzianstraße 18"
76541,50.9699572960593,11.1527650820275,16071103,"Montessori-Integrationsschule (Grundschule) Nohra ""Theodor Hellbrügge"" Aktion Sonnenschein Thüringen e.V.",1,"D-99428","Grammetal","Erfurter Straße 1c"
45957,50.9886900060758,12.4489099683468,16077001,"Erich-Mäder-Schule Altenburg Staatliche Gemeinschaftsschule",1,"D-04600","Altenburg","Erich-Mäder-Straße 41"
26913,50.8988600181876,12.0805900320786,16052000,"Bieblacher Schule Staatliche Regelschule Gera",0,"D-07546","Gera","Erich-Mühsam-Straße 41"
25935,50.3500000063097,11.1661600187263,16072018,"Staatliche Regelschule ""Cuno Hoffmeister"" Sonneberg",0,"D-96515","Sonneberg","Erich-Weinert-Straße 2"
26013,50.9067700202143,11.8531800302925,16074041,"Staatliche Regelschule ""Am Hermsdorfer Kreuz""",0,"D-07629","Hermsdorf","Erich-Weinert-Straße 25"
63066,51.0116500086205,11.3312700164184,16055000,"Staatliche Berufsbildende Schule Wirtschaft/Verwaltung und Ernährung ""Friedrich Justin Bertuch"" Weimar",0,"D-99427","Weimar","Ernst-Busse-Straße 2"
63772,50.9913099794608,10.2999400302302,16056000,"Evangelische Schule für soziale Berufe",0,"D-99817","Eisenach","Ernst-Thälmann-Str. 90"
50254,51.1119300085641,10.9356799772641,16068014,"Oskar-Gründler-Gymnasium Staatliches Gymnasium Gebesee",0,"D-99189","Gebesee","Ernst-Thälmann-Straße 17"
50267,50.7761600198113,12.0525300186372,16076079,"Georg-Samuel-Dörffel-Gymnasium Staatliches Gymnasium Weida",0,"D-07570","Weida","Ernst-Thälmann-Straße 23"
79048,50.9898400031914,10.3070199723854,16056000,"Freie Waldorfschule Eisenach/Wartburgkreis",1,"D-99817","Eisenach","Ernst-Thälmann-Straße 62-64"
76164,50.9913099794608,10.2999400302302,16056000,"Evangelische Grundschule Eisenach ""Katharina von Bora""",1,"D-99817","Eisenach","Ernst-Thälmann-Straße 90"
61743,50.5815499977123,10.4222100369736,16066042,"Staatliche Berufsbildende Schule für Gesundheit und Soziales Meiningen",0,"D-98617","Meiningen","Ernststraße 9"
22482,50.9497299981069,10.683640004454,16067029,"Staatliche Regelschule ""Conrad Ekhof"" Gotha",0,"D-99867","Gotha","Eschleber Straße 39"
75018,50.98948000045,11.0386000252508,16051000,"Evangelische Gemeinschaftsschule Erfurt",1,"D-99085","Erfurt","Eugen-Richter-Straße 22"
45576,51.0871800086867,10.7373499827168,16067067,"Staatliche Gemeinschaftsschule Tonna",1,"D-99958","Tonna","Fahnerscher Weg 1"
12657,50.9200200070255,10.5849300187942,16067088,"Hörselschule Hörselgau Staatliche Grundschule",1,"D-99880","Hörsel","Falltorstraße 14"
14956,51.2130300100953,10.4580000091614,16064046,"Margaretenschule Mühlhausen Staatliche Grundschule",1,"D-99974","Mühlhausen","Feldstraße 1"
25768,51.1627299995919,10.9861999708164,16068053,"Staatliche Regelschule Straußfurt",0,"D-99634","Straußfurt","Feldstraße 2a"
65291,51.2130899826126,10.4614100188303,16064046,"Förderberufsschule des Bildungszentrums der KAB für Berufsschüler mit besonderem Förderbedarf in den Bereichen Lernen und Emotionale und soziale Entwicklung",0,"D-99974","Mühlhausen","Feldstraße 43"
16654,50.887989988964,12.3525399585965,16077043,"Staatliche Grundschule Schmölln",1,"D-04626","Schmölln","Finkenweg 12"
25788,51.1966200038775,11.0653999871879,16068058,"Staatliche Regelschule ""Geschwister Scholl"" Weißensee",0,"D-99631","Weißensee","Fischhof 5"
14939,51.217959994086,10.4740100309597,16064046,"Forstbergschule Mühlhausen Staatliche Grundschule",1,"D-99974","Mühlhausen","Forstbergstraße 37"
24615,51.217959994086,10.4740100309597,16064046,"Regelschule am Forstberg Mühlhausen Staatliche Regelschule",0,"D-99974","Mühlhausen","Forstbergstraße 37"
17719,50.6540999797425,10.6687000164151,16066092,"Staatliche Grundschule ""Martin Luther "" Zella-Mehlis",1,"D-98544","Zella-Mehlis","Forstgasse 4"
26073,50.6540999797425,10.6687000164151,16066092,"Lutherschule Staatliche Regelschule Zella-Mehlis",0,"D-98544","Zella-Mehlis","Forstgasse 4"
45459,51.313330000878,11.160550010931,16065088,"Staatliche Gemeinschaftsschule Oldisleben",1,"D-06577","An der Schmücke","Frankenhäuserstraße 65"
75053,50.8843900034597,12.0799000338092,16052000,"Christliche Gemeinschaftsschule Gera",1,"D-07545","Gera","Franz-Mehring-Str. 2"
76301,50.9281300012619,11.592739965577,16053000,"Evangelische Grundschule Jena",1,"D-07743","Jena","Frauengasse 4"
76058,51.530180020039,10.7800599703473,16062041,"Evangelische Grundschule Nordhausen",1,"D-99734","Nordhausen","Freiheitstraße 21"
26148,50.9008399913557,11.2843000103181,16071003,"Klosterbergschule Bad Berka Staatliche Regelschule",0,"D-99438","Bad Berka","Friedensplatz 13"
78013,51.3771299884548,10.1309799729525,16061045,"Bergschule St. Elisabeth Staatlich anerkanntes katholisches Gymnasium in Heiligenstadt",0,"D-37308","Heilbad Heiligenstadt","Friedensplatz 5/6"
64147,51.3771299884548,10.1309799729525,16061045,"Bergschule St. Elisabeth Katholische berufsbildende Schule",0,"D-37308","Heilbad Heiligenstadt","Friedensplatz 5/6"
51321,50.6073199913871,10.6881199640632,16054000,"Friedrich-König-Gymnasium Suhl Staatliches Gymnasium",0,"D-98527","Suhl","Friedensstraße 1"
11773,50.9725799881726,11.9755999892836,16074012,"Staatliche Grundschule ""Elstertal"" Crossen",1,"D-07613","Crossen an der Elster","Friedensstraße 10"
11815,50.9725799881726,11.9755999892836,16074039,"Staatliche Grundschule ""Heinrich Heine"" Königshofen",1,"D-07613","Heideland","Friedensstraße 10"
76105,51.2034699885191,10.4507800054042,16064046,"Evangelische Grundschule Mühlhausen",1,"D-99974","Mühlhausen","Friedensstraße 16"
77246,51.2034699885191,10.4507800054042,16064046,"Evangelische Regelschule Mühlhausen",0,"D-99974","Mühlhausen","Friedensstraße 16"
78253,51.2034699885191,10.4507800054042,16064046,"Evangelisches Gymnasium Mühlhausen",0,"D-99974","Mühlhausen","Friedensstraße 16"
64643,50.8774699880171,12.0739300232725,16052000,"Grundig Akademie Gera, Staatlich genehmigte/anerkannte Fachschule für Wirtschaft und Technik, Staatlich anerkannte Höhere Berufsfachschule",0,"D-07545","Gera","Friedericistraße 11"
75067,50.8774699880171,12.0739300232725,16052000,"Freie Gemeinschaftsschule der Grundig Akademie Gera",1,"D-07545","Gera","Friedericistraße 11"
64480,50.8774699880171,12.0739300232725,16052000,"Gewerblich-technische Berufsschule der Grundig Akademie für Wirtschaft und Technik gemeinnützige Stiftung e.V.",0,"D-07545","Gera","Friedericistraße 11"
64673,50.8778099999194,12.0744200293321,16052000,"Höhere Berufsfachschule für Informatik und Gestaltung in der Gemeinnützigen Gesellschaft Semper Bildungswerk mbH",0,"D-07545","Gera","Friedericistraße 8a"
75070,50.8778099999194,12.0744200293321,16052000,"Entdecker-Gemeinschaftsschule in der Gemeinnützigen Gesellschaft Semper Bildungswerk mbH",1,"D-07545","Gera","Friedericistraße 8a"
21698,50.8235427342879,11.9348413358865,16076049,"Staatliche Regelschule Münchenbernsdorf",0,"D-07589","Münchenbernsdorf","Friedhofstraße 2"
20034,50.9883600105477,12.4348899780004,16077001,"Gebrüder-Reichenbach-Schule Altenburg Staatliche Regelschule",0,"D-04600","Altenburg","Friedrich-Ebert-Straße 13-15"
21025,50.9125099894183,10.4274300348141,16063071,"Staatliche Regelschule ""Johannes Dicel"" Seebach",0,"D-99846","Seebach","Friedrich-Engels-Ring 1"
10405,51.020109989224,11.51692003548,16071001,"Staatliche Grundschule ""Am Schötener Grund"" Apolda",1,"D-99510","Apolda","Friedrich-Engels-Str. 2"
15797,50.6960400057472,11.3240400381964,16073076,"Staatliche Grundschule Schwarza",1,"D-07407","Rudolstadt","Friedrich-Fröbel-Straße 72"
19211,50.6004500159065,10.6568699659113,16054000,"Staatliche Grundschule Heinrichs",1,"D-98529","Suhl","Friedrich-Ludwig-Jahn-Straße 11"
31540,50.3479899840187,11.1696299590029,16072018,"Schulzentrum am Wolkenrasen Staatliches regionales Förderzentrum Sonneberg",1,"D-96515","Sonneberg","Friedrich-Ludwig-Jahn-Straße 41"
17286,50.3479000042881,11.1695599701114,16072018,"Schulzentrum am Wolkenrasen Staatliche Grundschule Sonneberg",1,"D-96515","Sonneberg","Friedrich-Ludwig-Jahn-Straße 43"
64537,51.2184733678879,10.4597936298172,16064046,"Ludwig Fresenius Schulen Mühlhausen - private berufsbildende Schule",0,"D-99974","Mühlhausen","Friedrich-Naumann-Straße 36"
45477,51.2278700020294,10.9344599912569,16065023,"Staatliche Gemeinschaftsschule ""Friedrich von Hardenberg"" Greußen",1,"D-99718","Greußen","Friedrich-von-Hardenberg-Straße 7"
45098,50.9444600022139,11.5984700022258,16053000,"Montessorischule Jena Staatliche Gemeinschaftsschule",1,"D-07743","Jena","Friedrich-Wolf-Straße 2"
20437,50.7783500015635,10.7776100238681,16067053,"Staatliche Regelschule ""Am Kienberg"" Crawinkel",0,"D-99885","Ohrdruf","Friedrichsanfang 7a"
18906,50.8471000058796,12.0887300335284,16052000,"Zwötzener Schule Gera Staatliche Grundschule",1,"D-07551","Gera","Fritz-Reuter-Straße 7"
24764,50.581940007667,11.1397799901384,16073113,"Staatliche Regelschule ""Friedrich Fröbel"" Oberweißbach",0,"D-98744","Schwarzatal","Fröbelstraße 12"
18846,50.8641899939925,12.0748900026432,16052000,"Hans-Christian-Andersen-Grundschule Gera Staatliche Grundschule",1,"D-07548","Gera","Fröbelstraße 2 A"
45920,50.7351399914991,11.8759300242532,16075116,"Staatliche Gemeinschaftsschule Triptis",1,"D-07819","Triptis","Gabelsberger Straße 9"
11065,51.2678000057432,11.401910014172,16065087,"Grundschule ""Am alten Wald"" Staatliche Grundschule Wiehe",1,"D-06571","Roßleben-Wiehe","Garnbacher Straße 8"
17929,50.9358600019179,11.4863400028489,16071025,"Staatliche Grundschule Großschwabhausen/Magdala (Verbund)",1,"D-99441","Großschwabhausen","Gartensiedlung 1"
11409,50.7006200033709,10.1690499904421,16063086,"Staatliche Grundschule Wiesenthal",1,"D-36466","Wiesenthal","Gartenstraße 11"
76015,50.8925199885352,10.7008499795109,16067013,"Aktiv-Schule (Freie Grundschule Emleben)",1,"D-99869","Emleben","Gartenstraße 11a"
20110,50.9580800081408,12.5881700090078,16077023,"Wieratalschule Langenleuba-Niederhain Staatliche Regelschule",0,"D-04618","Langenleuba-Niederhain","Gartenstraße 15"
10301,50.9580800081408,12.5881700090078,16077023,"Wieratalschule Langenleuba-Niederhain Staatliche Grundschule",1,"D-04618","Langenleuba-Niederhain","Gartenstraße 15"
45032,51.0042899851707,11.097300001931,16051000,"Staatliche Gemeinschaftsschule Kerspleben",1,"D-99098","Erfurt","Gartenstraße 19"
12404,51.0561499935836,10.829419992319,16067033,"Staatliche Grundschule Großfahner",1,"D-99100","Großfahner","Gartenstraße 218a"
50194,50.9659199793664,10.0685399910754,16063097,"Philipp-Melanchthon-Gymnasium Schule der deutschen Einheit Staatliches Gymnasium Gerstungen",0,"D-99834","Gerstungen","Gartenstraße 28"
50660,51.4387399942794,10.5740600314802,16062066,"Staatliches Gymnasium ""Friedrich Schiller"" Bleicherode",0,"D-99752","Bleicherode","Gartenstraße 67"
21278,51.0527600166633,11.0377500164498,16051000,"Staatliche Regelschule Stotternheim",0,"D-99095","Erfurt","Gau-Algesheimer Straße 2"
12051,51.0527600166633,11.0377500164498,16051000,"Staatliche Grundschule Stotternheim",1,"D-99095","Erfurt","Gau-Algesheimer Straße 2"
15063,50.5258299971585,11.3013300259138,16073028,"Staatliche Grundschule Gräfenthal",1,"D-98743","Gräfenthal","Gebersdorfer Straße 8"
31027,51.5080699843858,10.7940600117641,16062041,"Staatliches regionales Förderzentrum ""Johann-Heinrich-Pestalozzi"" Nordhausen",1,"D-99734","Nordhausen","Geiersberg 7"
25382,50.6616099973496,11.4362199937162,16073111,"Staatliche Regelschule ""Kurt Löwenstein"" Unterwellenborn",0,"D-07333","Unterwellenborn","Gelängeweg 2"
30893,50.5812000113452,10.4243299879247,16066042,"Staatliches regionales Förderzentrum ""Jean Paul"" Meiningen Förderschwerpunkt geistige Entwicklung",1,"D-98617","Meiningen","Georg-Leubuscher-Straße 2"
70651,50.5103899866857,10.757950018513,16069043,"Lindenschule-Private Förderschule Förderzentrum mit dem Förderschwerpunkt geistige Entwicklung",1,"D-98553","Schleusingen","Georg-Neumark-Straße 3"
45823,50.3963300121931,11.007870040372,16072015,"Staatliche Gemeinschaftsschule ""Johann Wolfgang von Goethe"" Schalkau",1,"D-96528","Schalkau","Georgstraße 11"
50014,50.984019986812,12.4207900242977,16077001,"Friedrichgymnasium Altenburg Staatliches Gymnasium",0,"D-04600","Altenburg","Geraer Straße 33"
65184,51.5085799812845,10.7816699663092,16062041,"IWK gGmbH - Berufsfachschule und Höhere Berufsfachschule für Pflegeberufe",0,"D-99734","Nordhausen","Gerhart-Hauptmann-Straße 3"
50434,50.6788299887808,10.914460015909,16070029,"Staatliches Gymnasium ""Am Lindenberg"" Ilmenau",0,"D-98693","Ilmenau","Gerhart-Hauptmann-Straße 5"
50807,50.7272099986334,10.4521500274782,16066063,"Philipp-Melanchthon-Gymnasium Schmalkalden Staatliches Gymnasium",0,"D-98574","Schmalkalden","Geschw.-Scholl-Straße 1/10"
64283,51.5077500052321,10.7962699843553,16062041,"Berufsbildende Schule pro vita Akademie Nordhausen gGmbH",0,"D-99734","Nordhausen","Geschwister-Scholl-Straße 14"
50417,50.4278999894987,10.7260800109832,16069024,"Staatliches Gymnasium Georgianum Hildburghausen",0,"D-98646","Hildburghausen","Geschwister-Scholl-Straße 15"
18113,51.3863199909154,10.3244700051492,16061115,"Staatliche Grundschule ""Konrad Hentrich"" Leinefelde",1,"D-37327","Leinefelde-Worbis","Geschwister-Scholl-Straße 6"
26283,51.3863199909154,10.3244700051492,16061115,"Staatliche Regelschule ""Konrad Hentrich"" Leinefelde",0,"D-37327","Leinefelde-Worbis","Geschwister-Scholl-Straße 6"
20080,51.0440000058357,12.2835699712315,16077032,"Staatliche Regelschule ""Geschwister Scholl"" Meuselwitz",0,"D-04610","Meuselwitz","Geschwister-Scholl-Straße 9/10"
64508,51.3710764154132,10.3295071393905,16061115,"Kyffhäuser-Paracelsus-Schule, Berufsbildende Schule in freier Trägerschaft",0,"D-37327","Leinefelde-Worbis","Gewerbepark Süd 7"
62418,50.6440400195513,10.6819200379224,16066092,"Staatliches Berufsbildungszentrum Suhl/Zella-Mehlis",0,"D-98544","Zella-Mehlis","Gewerbestraße 1"
26433,50.6438699926454,11.9740200005351,16076087,"Staatliche Regelschule ""Friedrich Solle"" Zeulenroda",0,"D-07937","Zeulenroda-Triebes","Giengener Straße 18"
13888,50.6307000111,10.8600400066283,16070029,"Staatliche Grundschule Stützerbach Grundschule am Rennsteig",1,"D-98694","Ilmenau","Gläsertalstr. 13"
20586,51.2998799799475,11.4390799828987,16065087,"Staatliche Regelschule ""Gerhart Hauptmann"" Roßleben",0,"D-06571","Roßleben","Glück-Auf-Straße 11"
63576,51.3795500115396,10.3181199591226,16061115,"Staatliche Berufsbildende Schulen Eichsfeld",0,"D-37327","Leinefelde-Worbis","Goethestraße 18"
13078,50.6725299827161,12.2627000381531,16076093,"Staatliche Grundschule Mohlsdorf",1,"D-07987","Mohlsdorf-Teichwolframsdorf","Goethestraße 22"
12284,50.8651299825241,12.1899600383779,16076061,"Staatliche Grundschule Ronneburg",1,"D-07580","Ronneburg","Goethestraße 28"
20380,50.8343399832185,10.9333900413166,16070004,"Staatliche Regelschule ""Robert Bosch"" Arnstadt",0,"D-99310","Arnstadt","Goethestraße 32"
10645,50.8343399832185,10.9333900413166,16070004,"Staatliche Grundschule ""Dr. Harald Bielfeld"" Arnstadt",1,"D-99310","Arnstadt","Goethestraße 32"
75940,50.6610199951851,12.2095000148795,16076022,"Freie Gemeinschaftsschule Elstertal Greiz",1,"D-07973","Greiz","Goethestraße 37"
25096,50.7375300073705,11.7400199788343,16075073,"Staatliche Regelschule ""Johann Wolfgang von Goethe"" Neustadt a.d. Orla",0,"D-07806","Neustadt an der Orla","Goethestraße 7"
12537,50.9765699836316,10.7872600251749,16067022,"Staatliche Grundschule ""Immertal"" Friemar",1,"D-99869","Friemar","Goethestraße 7"
18731,50.9661599951639,11.0280900406782,16051000,"Grundschule am Steigerwald Erfurt Staatliche Grundschule",1,"D-99096","Erfurt","Goethestraße 72"
17470,50.8606900045931,11.7329299783953,16074094,"Staatliche Grundschule ""Milo Barus"" Stadtroda",1,"D-07646","Stadtroda","Goetheweg 15"
26027,50.8612600159185,11.7322399801259,16074094,"Staatliche Regelschule ""Auf der Schönen Aussicht"" Stadtroda",0,"D-07646","Stadtroda","Goetheweg 17"
14218,51.1556700063663,10.8378899892969,16064004,"Sebastian-Kneipp-Schule Bad Tennstedt Staatliche Grundschule",1,"D-99955","Bad Tennstedt","Goetheweg 2"
15170,50.4724899961019,11.0890900115897,16072013,"Staatliche Grundschule Steinheid",1,"D-98749","Neuhaus am Rennweg","Göritzweg 15"
64943,50.8907200167378,11.5926600022207,16053000,"Euro Akademie Jena, Berufsbildende Ersatzschule",0,"D-07745","Jena","Göschwitzer Straße 22"
12510,50.9953500148819,10.5890199684487,16067063,"Staatliche Grundschule Sonneborn",1,"D-99869","Sonneborn","Gothaer Straße 183e"
22556,51.001959983726,10.7819400312295,16067047,"Staatliche Regelschule ""An der Nesse"" Molschleben",0,"D-99869","Molschleben","Gothaer Straße 20a"
70261,50.7697600176417,12.0600800179225,16076079,"Schule an der Weida, Förderschule zur individuellen Lebensbewältigung der Lebenshilfe Greiz/Zeulenroda gGmbH",1,"D-07570","Weida","Gräfenbrücker Straße 6a"
31117,50.5775400114141,11.8188100363215,16075098,"Friedrich-Fröbel-Schule Schleiz Staatliches regionales Förderzentrum",1,"D-07907","Schleiz","Greizer Straße 40a"
62061,50.7184100061275,10.4687199604086,16066063,"Staatliches Berufsbildungszentrum",0,"D-98574","Schmalkalden","Grenzweg 1"
14699,50.3816299980421,10.5372300327463,16069062,"Staatliche Grundschule ""An den Gleichbergen"" Milz",1,"D-98630","Römhild","Grete-Walter-Straße 7"
45163,50.9784000045519,11.3237200171332,16055000,"Staatliche Gemeinschaftsschule Weimar",1,"D-99423","Weimar","Gropiusstraße 1"
17842,50.8527900189407,11.1986200284206,16071046,"Staatliche Grundschule ""Anna Sophia"" Kranichfeld",1,"D-99448","Kranichfeld","Große Gebind 20"
26207,50.8527900189407,11.1986200284206,16071046,"Staatliche Regelschule ""Anna Sophia"" Kranichfeld",0,"D-99448","Kranichfeld","Große Gebind 20"
17885,50.8577599846096,11.3472500310034,16071008,"Lindenschule Blankenhain Staatliche Grundschule",1,"D-99444","Blankenhain","Große Nonnengasse 22a"
31704,50.8577599846096,11.3472500310034,16071008,"Staatliches regionales Förderzentrum ""Hans Bürger"" Blankenhain Förderschwerpunkt Lernen",1,"D-99444","Blankenhain","Große Nonnengasse 22a"
26482,50.9840699848645,11.0257899626278,16051000,"Ulrich-von-Hutten-Schule Erfurt Staatliche Regelschule",0,"D-99084","Erfurt","Grünstraße 9"
50894,51.3681800017916,10.8687000213511,16065067,"Staatliches Gymnasium ""Geschwister Scholl"" Sondershausen",0,"D-99706","Sondershausen","Güntherstraße 58"
15723,50.7113800201152,11.316019981781,16073076,"Staatliche Grundschule Rudolstadt-West",1,"D-07407","Rudolstadt","Gustav-Freytag-Straße 4"
52026,50.9642300200482,11.0318599692694,16051000,"Heinrich-Mann-Gymnasium Erfurt Staatliches Gymnasium ""Zur Himmelspforte""",0,"D-99096","Erfurt","Gustav-Freytag-Straße 65"
51124,50.9811900048429,11.0140899992614,16051000,"Staatliches Gymnasium ""Johann Gutenberg"" Erfurt",0,"D-99092","Erfurt","Gutenbergplatz 6"
18820,50.8833700096623,12.0696799792674,16052000,"Staatliche Grundschule ""Otto Dix"" Gera",1,"D-07548","Gera","Gutenbergstraße 1"
26807,50.8833700096623,12.0696799792674,16052000,"Staatliche Regelschule ""Otto Dix"" Gera",0,"D-07548","Gera","Gutenbergstraße 1"
27231,50.9756799931525,11.3120300282314,16055000,"Pestalozzischule Weimar Staatliche Regelschule",0,"D-99423","Weimar","Gutenbergstraße 32"
24118,50.607300000548,10.8097899941773,16054000,"ImPULS-Schule Staatliche Regelschule Schmiedefeld",0,"D-98528","Suhl","Guts-Muths-Straße 12"
13874,50.7308800149387,10.8242500344404,16070057,"Staatliche Grundschule Geschwenda",1,"D-99331","Geratal","Gutshof 19a"
10841,51.3662299939274,11.3008800015323,16065086,"Staatliche Grundschule ""Am Königstuhl"" Artern",1,"D-06556","Artern","H.-Hoffmann-v.- Fallersleben-Str. 1"
64224,50.9484399812987,11.0841300203857,16051000,"Schule für Gesundheits- und Krankenpflege am Katholischen Krankenhaus ""St. Johann Nepomuk"" Erfurt",0,"D-99097","Erfurt","Haarbergstraße 70"
15303,51.5848900012602,10.6642799874136,16062005,"Goeckingk-Schule Ellrich Staatliche Grundschule",1,"D-99755","Ellrich","Hagenstraße 15"
12870,50.646629985723,12.2163399831468,16076022,"Staatliche Grundschule Greiz-Irchwitz",1,"D-07973","Greiz","Hainbergstraße 3"
64597,50.8760899914783,12.0735400133177,16052000,"Bildungszentrum für medizinische Heilhilfsberufe GmbH, Private Berufsbildende Schule",0,"D-07545","Gera","Hainstraße 21"
76241,51.3775300147838,10.2772199596638,16061115,"Freie Integrative Ganztagsgrundschule Kleeblatt",1,"D-37327","Leinefelde-Worbis","Halle-Kasseler-Straße 18"
26240,51.4103600016843,10.4235300190856,16061017,"Staatliche Regelschule Breitenworbis",0,"D-37339","Breitenworbis","Halle-Kasseler-Straße 4"
17962,51.4103600016843,10.4235300190856,16061017,"Staatliche Grundschule Breitenworbis",1,"D-37339","Breitenworbis","Halle-Kasseler-Straße 4"
26463,50.9838199946023,11.0485400404076,16051000,"Staatliche Regelschule ""Thomas Mann"" Erfurt",0,"D-99085","Erfurt","Hallesche Straße 18"
18473,50.984329991501,11.0484100370893,16051000,"Staatliche Grundschule ""Thomas Mann"" Erfurt",1,"D-99085","Erfurt","Hallesche Straße 18A"
18503,50.994400009976,11.0239300183132,16051000,"Bechsteinschule Erfurt Staatliche Grundschule",1,"D-99089","Erfurt","Hans-Sailer-Straße 25"
12224,50.8787900120387,11.9534399974874,16076089,"Staatliche Grundschule ""Am Erlbach"" Kraftsdorf",1,"D-07586","Kraftsdorf","Hapersdorfer Straße 6"
76061,51.5053000168434,10.7797999637107,16062041,"Freie Grundschule nach der Pädagogik Maria Montessoris mit integrativem Charakter",1,"D-99734","Nordhausen","Hardenbergstraße 23"
18667,50.9249400165514,10.9916700008287,16051000,"Staatliche Grundschule ""Thomas Müntzer"" Möbisburg",1,"D-99094","Erfurt","Hauptstraße 1"
17989,51.4935800207283,10.3501099955058,16061015,"Staatliche Grundschule ""Am Sonnenstein"" Brehme",1,"D-37339","Brehme","Hauptstraße 127"
13231,51.3922656122504,10.0016638924632,16061082,"Staatliche Grundschule ""Am Rusteberg"" Rustenfelde",1,"D-37318","Rustenfelde","Hauptstraße 1b"
15423,51.4193500119352,10.5933099941319,16062037,"Staatliche Grundschule ""Am Lohholz"" Sollstedt",1,"D-99759","Niedergebra","Hauptstraße 251"
15317,51.4193500119352,10.5933099941319,16062037,"Staatliche Grundschule ""Adolph Diesterweg"" Niedergebra",1,"D-99759","Niedergebra","Hauptstraße 251"
17795,51.0611000103229,11.239539976809,16071102,"Aktiv-Schule Berlstedt ""An der Via Regia"" Staatliche Grundschule",1,"D-99439","Am Ettersberg","Hauptstraße 28"
13228,51.3994299999435,10.2106300137055,16061012,"Staatliche Grundschule Bodenrode",1,"D-37308","Bodenrode-Westhausen","Hauptstraße 31a"
13305,51.4207800065264,10.1209599944395,16061049,"Staatliche Grundschule Siemerode",1,"D-37308","Hohes Kreuz","Hauptstraße 3a"
25139,50.7076900129708,11.6492999585575,16075077,"Staatliche Regelschule Oppurg",0,"D-07381","Oppurg","Hauptstraße 4"
10375,51.0583400172453,11.5421600414171,16071004,"Staatliche Grundschule Wickerstedt",1,"D-99510","Bad Sulza","Hauptstraße 49"
11546,51.1113299900253,10.3326499882772,16063058,"Haineck-Schule Nazza Staatliche Grundschule",1,"D-99826","Nazza","Hauptstraße 66"
11023,51.3753599819613,11.1639699950646,16065003,"Staatliche Grundschule Udersleben",1,"D-06567","Bad Frankenhausen","Hauptstraße 71"
18251,51.5317699832524,10.4206599716193,16064074,"Staatliche Grundschule ""Im Ellertal"" Weißenborn-Lüderode",1,"D-37345","Sonnenstein -Lüderode","Hauptstraße 71"
24298,51.0233700047356,10.5196299639156,16063098,"Staatliche Regelschule ""Am Rennstieg"" Behringen",0,"D-99820","Hörselberg-Hainich","Hauptstraße 75"
14235,51.0233700047356,10.5196299639156,16063098,"Staatliche Grundschule ""Am Hainich"" Behringen",1,"D-99820","Hörselberg-Hainich","Hauptstraße 75"
15153,50.5733299909967,11.0932900156329,16073113,"Staatliche Grundschule Meuselbach",1,"D-98744","Schwarzatal","Hauptstraße 80"
14090,50.7713099991769,11.5142099985453,16074065,"Staatliche Grundschule ""Saaletalblick"" Orlamünde",1,"D-07768","Orlamünde","Hausberg 5"
70828,51.0111400117218,10.9951899810672,16051000,"CJD Christophorusschule Erfurt Förderschule für Schüler mit dem Förderschwerpunkt geistige Entwicklung",1,"D-99091","Erfurt","Havannaer Straße 29"
23790,51.3789499930008,9.97252998406651,16061057,"Staatliche Regelschule Arenshausen",0,"D-37318","Kirchgandern","Heiligenstädter Straße 34"
50614,51.2419300159635,10.6566099592748,16064077,"Seiler-Gymnasium Staatliches Gymnasium Schlotheim",0,"D-99994","Nottertal-Heilinger Höhen","Heilinger Straße 9"
50381,50.6516499913538,12.1955699623542,16076022,"Ulf-Merbold-Gymnasium Staatliches Gymnasium Greiz",0,"D-07973","Greiz","Heinrich-Fritz-Straße 19"
15320,51.4626500017301,10.933649964134,16062008,"Staatliche Grundschule Görsbach",1,"D-99765","Görsbach","Heinrich-Heine-Straße 358"
18397,50.6521299810391,11.9927999898758,16076087,"Friedrich-Reimann-Grundschule Zeulenroda Staatliche Grundschule",1,"D-07937","Zeulenroda-Triebes","Heinrich-Heine-Straße 39"
20797,50.8115899892578,10.3524300224857,16063099,"Staatliche Regelschule Altensteiner Oberland",0,"D-36448","Bad Liebenstein","Heinrich-Mann-Straße 32"
23954,50.2778099851114,10.7218299669781,16069063,"Staatliche Regelschule Heldburg",0,"D-98663","Heldburg","Hellinger Straße 285"
50837,50.9023999892652,12.358190031889,16077043,"Roman-Herzog-Gymnasium Schmölln Staatliches Gymnasium",0,"D-04626","Schmölln","Helmholtzstraße 18"
26147,50.5088499796152,10.7597699811495,16069043,"Staatliche Regelschule ""Gerhart Hauptmann"" Schleusingen",0,"D-98553","Schleusingen","Helmut-Kohl-Str. 7"
17675,50.5084419540265,10.7601014355678,16069043,"Staatliche Grundschule ""Gerhart Hauptmann"" Schleusingen",1,"D-98553","Schleusingen","Helmut-Kohl-Straße 5"
14669,50.4901831650479,10.3554789191476,16066042,"Staatliche Grundschule Henneberg",1,"D-98617","Meiningen Ortsteil Henneberg","Henneberger Hauptstraße 51"
64240,50.9614400197572,11.3226499833738,16055000,"Krankenpflegeschule am Sophien- und Hufeland Klinikum",0,"D-99425","Weimar","Henry-Van-de-Velde-Straße 2"
20664,50.9415899966571,10.0771900313335,16063103,"Eichelbergschule Staatliche Regelschule Berka/Werra",0,"D-99837","Werra-Suhl-Tal","Herdaer Straße 8c"
50447,50.6751899796888,10.9079600176345,16070029,"Goetheschule Ilmenau Staatliches Gymnasium mit mat.-nw. Spezialklassen",0,"D-98693","Ilmenau","Herderstraße 44"
25559,50.6890999994656,10.5588600368047,16066069,"Staatliche Regelschule Steinbach-Hallenberg",0,"D-98587","Steinbach-Hallenberg","Hergeser Wiese 2"
16414,50.6887399967242,10.5595699840037,16066069,"Haseltal-Grundschule Steinbach-Hallenberg Staatliche Grundschule",1,"D-98587","Steinbach-Hallenberg","Hergeser Wiese 5"
45014,50.9540699799331,11.0749700251384,16051000,"Gemeinschaftsschule am Großen Herrenberg Staatliche Gemeinschaftsschule Erfurt",1,"D-99099","Erfurt","Hermann-Brill-Straße 129"
31614,50.9069599960497,11.8560800011531,16074041,"Christophorus-Schule Hermsdorf Staatliches regionales Förderzentrum Förderschwerpunkt geistige Entwicklung",1,"D-07629","Hermsdorf","Hermann-Danz-Straße 13/14"
45463,51.2810999906068,10.7384500236895,16065014,"Staatliche Gemeinschaftsschule Ebeleben",1,"D-99713","Ebeleben","Hermann-Töppe-Straße 4"
24361,50.5307300158454,11.6559199856855,16075134,"Staatliche Regelschule Remptendorf",0,"D-07368","Remptendorf","Herrengarten 21"
70591,51.174310017924,11.4226699766809,16068042,"Finneck-Schule Staatlich anerkannte Förderschule",1,"D-99636","Rastenberg","Herrenstraße 34"
75048,51.174310017924,11.4226699766809,16068042,"Finneck-Gemeinschaftsschule Maria Martha",1,"D-99636","Rastenberg","Herrenstraße 34"
14776,51.2353200052098,10.4495499611131,16064071,"Daltonschule Staatliche Grundschule Unstruttal Ammern",1,"D-99974","Unstruttal","Herrenstraße 37"
18700,50.953580015783,11.0750100068166,16051000,"Schule am Wiesenhügel Erfurt Staatliche Grundschule",1,"D-99099","Erfurt","Herrmann-Brill-Str. 131"
64300,51.3615500001989,10.8767500011608,16065067,"Private Fachschule für Wirtschaft und Soziales Sondershausen, Staatlich genehmigte/anerkannte berufsbildende Ersatzschule",0,"D-99706","Sondershausen","Herrmann-Danz-Str. 36"
11139,50.8374500045727,10.0826299703133,16063101,"Staatliche Grundschule Dorndorf",1,"D-36460","Krayenberggemeinde","Hersfelder Str. 9"
64733,51.3790499891057,10.3239100101981,16061115,"Förderberufsschule des OEBW e.V.",0,"D-37327","Leinefelde-Worbis","Hertzstraße 41"
11652,50.9834299846475,10.428620013608,16063098,"Staatliche Grundschule ""Nessetal"" Wenigenlupnitz",1,"D-99820","Hörselberg-Hainich","Heugasse 1"
24088,50.7014499794233,11.0171700134022,16070029,"Staatliche Regelschule Gräfinau-Angstedt",0,"D-98693","Ilmenau","Hinter den Gärten 40"
13258,51.2326300010237,10.1670799917388,16061035,"Staatliche Grundschule ""Regenbogen"" Geismar",1,"D-37308","Geismar","Hintergasse 23"
24645,51.1490099975602,10.4198999844584,16064075,"Staatliche Regelschule Langula",0,"D-99986","Vogtei","Hinterm Jacobsdorf 5"
45018,50.9658499904749,11.0477200388199,16051000,"Gemeinschaftsschule ""Am Hirnzigenpark"" Staatliche Gemeinschaftsschule",1,"D-99099","Erfurt","Hirnzigenweg 31"
50780,50.5752699824866,11.8083700406404,16075098,"Staatliches Gymnasium ""Dr. Konrad Duden"" Schleiz",0,"D-07907","Schleiz","Hofer Straße 10"
13858,50.6726599860343,10.9760300400555,16070029,"Staatliche Grundschule ""Johann Jacob Wilhelm Heinse"" Langewiesen",1,"D-98693","Ilmenau","Hofgraben 6"
12421,50.9451000024309,10.7457300418735,16067029,"Staatliche Grundschule ""Gotha-Siebleben""",1,"D-99867","Gotha","Högernweg 8"
31793,50.6496799926505,11.9920600354635,16076087,"Pestalozzischule Staatliches regionales Förderzentrum Zeulenroda",1,"D-07937","Zeulenroda-Triebes","Hohe Straße 121-123"
23726,51.384000005845,10.1403200114799,16061045,"Tilman-Riemenschneider-Schule Heiligenstadt Staatliche Regelschule",0,"D-37308","Heilbad Heiligenstadt","Holbeinstraße 16"
13201,51.384000005845,10.1403200114799,16061045,"Staatliche Grundschule ""Tilman Riemenschneider"" Heiligenstadt",1,"D-37308","Heilbad Heiligenstadt","Holbeinstraße 16"
10705,50.8513200007618,10.8875800067967,16070028,"Staatliche Grundschule ""An der Wachsenburg"" Holzhausen",1,"D-99334","Amt Wachsenburg","Holzhausen Am Lämmerberg 31"
10015,50.984869995613,12.4257200082884,16077001,"Karolinum-Schule Altenburg Staatliche Grundschule",1,"D-04600","Altenburg","Hospitalplatz 8"
24901,51.5848700104211,10.6699100279575,16062005,"Staatliche Regelschule Ellrich",0,"D-99755","Ellrich","Hospitalstraße 36"
11185,50.8120400136393,10.2402499831469,16063003,"Burgseeschule Staatliche Grundschule Bad Salzungen",1,"D-36433","Bad Salzungen","Hübscher Graben 18"
45073,50.8966399873126,11.5738599801314,16053000,"Staatliche Gemeinschaftsschule ""An der Trießnitz"" Jena",1,"D-07745","Jena","Hugo-Schrade-Str. 1"
19134,50.8972400058514,11.5731900146106,16053000,"Staatliche Grundschule ""Friedrich Schiller"" Jena",1,"D-07745","Jena","Hugo-Schrade-Straße 3"
77185,50.696550002646,10.9222700218308,16070029,"Freie Reformschule ""Franz von Assisi"", Staatlich anerkannte Regelschule",0,"D-98693","Ilmenau","Humboldtstraße 2"
78480,50.696550002646,10.9222700218308,16070029,"Freie Reformschule ""Franz von Assisi"", Gymnasiale Oberstufe",0,"D-98693","Ilmenau","Humboldtstraße 2"
76151,50.696550002646,10.9222700218308,16070029,"Freie Reformschule ""Franz von Assisi"", Staatlich anerkannte Grundschule",1,"D-98693","Ilmenau","Humboldtstraße 2"
15287,51.4982100164044,10.7707699717818,16062041,"Staatliche Grundschule ""Niedersalza"" Nordhausen",1,"D-99734","Nordhausen","Hüpedenweg 48"
18623,50.9637100067752,10.9902800298251,16051000,"Staatliche Grundschule ""Christian Reichart"" Erfurt",1,"D-99094","Erfurt","Im Gebreite 34"
17495,50.8937799981301,11.6913300062024,16074085,"Staatliche Grundschule ""Novalis"" Schlöben",1,"D-07646","Schlöben","Im Kirchfeld 1-4"
20260,51.0275700087788,11.5973599867883,16071004,"Staatliche Regelschule Wormstedt",0,"D-99518","Bad Sulza","Im Unterdorf 111"
70725,51.4213200106385,10.3639500263911,16061115,"Tabaluga-Förderschule Lebenshilfe Leinefelde-Worbis gemeinnützige GmbH",1,"D-37339","Leinefelde-Worbis","Jägerstr. 3a"
31237,50.6483699850032,11.3540100359144,16073077,"Staatliches regionales Förderzentrum ""Johann Heinrich Pestalozzi"" Saalfeld",1,"D-07318","Saalfeld","Jahnstraße 2"
65634,51.0130900195861,11.5128399764713,16071001,"Deutsches Erwachsenen-Bildungswerk in Thüringen, gemeinnützige Schulträger-GmbH, Staatlich genehmigte Höhere Berufsfachschule für Pflegeberufe",0,"D-99510","Apolda","Jenaer Straße 66"
15856,50.7411999817664,11.46946002332,16073109,"Staatliche Grundschule ""Heinrich Heine"" Uhlstädt",1,"D-07407","Uhlstädt-Kirchhasel","Jenaische Straße 46"
45127,50.9357199822253,11.6017100268983,16053000,"Staatliche Gemeinschaftsschule ""Wenigenjena""",1,"D-07749","Jena","Jenzigweg 29"
24460,50.591820008397,10.4140700355238,16066042,"Staatliche Regelschule ""Am Kiliansberg"" Meiningen",0,"D-98617","Meiningen","Jerusalemer Straße 15"
14567,50.591820008397,10.4140700355238,16066042,"Staatliche Grundschule ""Ludwig Bechstein"" Meiningen",1,"D-98617","Meiningen","Jerusalemer Straße 15"
17259,50.3414500040661,11.1817699722861,16072018,"Staatliche Grundschule Sonneberg-Oberlind",1,"D-96515","Sonneberg","Johann-Sebastian-Bach-Straße 9"
16955,51.2013499956584,11.0678200102727,16068058,"Traumzauberbaum-Schule Weißensee Staatliche Grundschule",1,"D-99631","Weißensee","Johannesstraße 1"
30948,51.211060011392,10.4424899678875,16064046,"Pestalozzischule Mühlhausen Staatliches regionales Förderzentrum",1,"D-99974","Mühlhausen","Johannistal 16"
45134,50.6061300125933,10.6983499930698,16054000,"Jenaplan-Schule Suhl Staatliche Gemeinschaftsschule",1,"D-98527","Suhl","Judithstraße 70"
31164,50.6977199906007,11.6145999690586,16075085,"Staatliches regionales Förderzentrum Pößneck",1,"D-07381","Pößneck","Julius-Fucik-Straße 25"
19254,50.6144099918261,10.7094600380908,16054000,"Schule am Himmelreich Suhl Staatliche Grundschule",1,"D-98527","Suhl","Julius-Fucik-Straße 36"
15604,50.7373199987865,11.7443000300528,16075073,"Staatliche Grundschule ""Friedrich Schiller"" Neustadt a.d. Orla",1,"D-07806","Neustadt an der Orla","Jungferngasse 12"
18521,50.9780599926496,11.0389799769218,16051000,"Humboldt-Grundschule Erfurt Staatliche Grundschule",1,"D-99084","Erfurt","Juri-Gagarin-Ring 126"
64330,50.9733799989211,11.0342599596056,16051000,"Euro Akademie Erfurt, Berufsbildende Ersatzschule",0,"D-99084","Erfurt","Juri-Gargarin-Ring 90"
17272,50.362700014544,11.173740025225,16072018,"Staatliche Grundschule ""Geschwister Scholl"" Sonneberg",1,"D-96515","Sonneberg","Juttastraße 1"
52926,50.8359200138766,10.9592700055611,16070004,"Staatliches Gymnasium ""MELISSANTES"" Arnstadt",0,"D-99310","Arnstadt","Käfernburger Straße 2"
64420,50.8471300130929,12.1180400401904,16052000,"Bildungswerk für Gesundheits- und Sozialberufe gGmbH Gera-Kaimberg, Staatlich anerkannte berufsbildende Schule",0,"D-07551","Gera","Kaimberg Nr. 1"
11322,50.8406800128709,10.1687800093408,16063003,"Krayenbergschule Tiefenort Staatliche Grundschule",1,"D-36469","Bad Salzungen","Kantstraße 12"
24568,50.5277499978094,10.4423400156397,16066049,"Staatliche Regelschule ""Im Werratal"" Obermaßfeld",0,"D-98617","Obermaßfeld-Grimmenthal","Kapellenstraße 16"
45060,50.8794300122557,12.0964599922748,16052000,"Ostschule Gera Staatliche Gemeinschaftsschule",0,"D-07546","Gera","Karl-Liebknecht-Straße 56"
51318,50.9331599813575,11.6060700414731,16053000,"Staatliches Angergymnasium Jena",0,"D-07749","Jena","Karl-Liebknecht-Straße 87"
45104,50.8842299929281,11.6056699732345,16053000,"Kaleidoskop Jena Staatliche Gemeinschaftsschule Jenaplan-Schule Lobeda",1,"D-07747","Jena","Karl-Marx-Allee 11"
19088,50.8842299929281,11.6056699732345,16053000,"Saaletalschule Jena Staatliche Grundschule",1,"D-07747","Jena","Karl-Marx-Allee 11"
51275,50.8827899819626,11.6025199702021,16053000,"Otto-Schott-Gymnasium Jena Staatliches Gymnasium",0,"D-07747","Jena","Karl-Marx-Allee 7"
45120,50.8827899819626,11.6025199702021,16053000,"Staatliche Gemeinschaftsschule ""Kulturanum"" Jena",1,"D-07747","Jena","Karl-Marx-Allee 7"
70531,50.4558199832476,11.6366400158203,16075062,"Michaelisstift, Michaelisschule Bad Lobenstein, Förderschule",1,"D-07356","Bad Lobenstein","Karl-Marx-Str. 35"
11455,50.9784399862301,10.3162999964861,16056000,"Jakob-Schule Eisenach Staatliche Grundschule",1,"D-99817","Eisenach","Karl-Marx-Straße 10"
25116,50.6913699864835,11.5808799916789,16075085,"Staatliche Regelschule ""Prof. Franz Huth"" Pößneck",0,"D-07381","Pößneck","Karl-Marx-Straße 15b"
15543,50.6913699864835,11.5808799916789,16075085,"Staatliche Grundschule ""Am Rosenhügel"" Pößneck",1,"D-07381","Pößneck","Karl-Marx-Straße 15b"
45583,50.8799700163677,10.5103699725635,16067064,"Staatliche Gemeinschaftsschule ""Am Inselsberg"" Bad Tabarz",1,"D-99891","Bad Tabarz","Karl-Marx-Straße 19"
10241,51.0186799946328,12.3674900049192,16077042,"INSOBEUM Rositz Staatliche Grundschule",1,"D-04617","Rositz","Karl-Marx-Straße 1a"
20153,51.0186799946328,12.3674900049192,16077042,"INSOBEUM Rositz Staatliche Regelschule",0,"D-04617","Rositz","Karl-Marx-Straße 1a"
64298,50.5960099960659,11.1028499952996,16073113,"Freie berufliche Schule für Pädagogik und Pflege Mellenbach-Glasbach",0,"D-98744","Schwarzatal","Karl-Marx-Straße 21"
70335,51.408839985453,10.5180600334509,16062049,"Freie Schule - Am Park Förderschule",1,"D-99759","Sollstedt","Karl-Marx-Straße 21"
25101,50.4556699890903,11.6374699918728,16075062,"Staatliche Regelschule Bad Lobenstein",0,"D-07356","Bad Lobenstein","Karl-Marx-Straße 22 b"
14429,50.4564599834646,11.6370499747046,16075062,"Staatliche Grundschule Bad Lobenstein",1,"D-07356","Bad Lobenstein","Karl-Marx-Straße 22"
50507,50.4575599825278,11.6370000185617,16075062,"Staatliches Gymnasium ""Christian Gottlieb Reichard"" Bad Lobenstein",0,"D-07356","Bad Lobenstein","Karl-Marx-Straße 24"
75907,50.4558199832476,11.6366400158203,16075062,"Freie Montessori-Gemeinschaftsschule Bad Lobenstein",1,"D-07356","Bad Lobenstein","Karl-Marx-Straße 35"
24584,51.2093500193252,10.4698200013814,16064046,"Staatliche Regelschule ""Thomas Müntzer"" Mühlhausen",0,"D-99974","Mühlhausen","Karl-Marx-Straße 35"
18367,50.709569990034,12.053910015176,16076029,"Staatliche Grundschule Hohenleuben",1,"D-07958","Hohenleuben","Karl-Marx-Straße 7"
45011,51.016779984821,11.0197900286968,16051000,"Gemeinschaftsschule am Roten Berg Staatliche Gemeinschaftsschule Erfurt",1,"D-99087","Erfurt","Karl-Reimann-Ring 14"
13681,50.685370010643,10.9113199873414,16070029,"Staatliche Grundschule ""Karl Zink"" Ilmenau",1,"D-98693","Ilmenau","Karl-Zink-Straße 18"
30725,50.6849900170625,10.9109899918134,16070029,"Pestalozzischule Ilmenau Staatliches regionales Förderzentrum",1,"D-98693","Ilmenau","Karl-Zink-Straße 33"
45454,51.1633599834346,10.3169100313992,16064074,"Staatliche Gemeinschaftsschule Südeichsfeld ""Johann Wolfgang von Goethe""",1,"D-99988","Südeichsfeld","Karlstraße 11"
18730,50.9692499837695,11.0244299988376,16051000,"Puschkinschule Erfurt Staatliche Grundschule",1,"D-99084","Erfurt","Kartäuserstraße 50"
20933,50.9776799990692,10.3062500107597,16056000,"Staatliche Regelschule ""Geschwister Scholl"" Eisenach",0,"D-99817","Eisenach","Katharinenstraße 150"
64301,50.8549715817875,12.073205308885,16052000,"Private Fachschule für Wirtschaft und Soziales Gera, Staatlich genehmigte/anerkannte berufsbildende Ersatzschule",0,"D-07549","Gera","Keplerstraße 48"
64952,50.9004400069362,11.5915499867832,16053000,"GAW-Institut für berufliche Bildung gemeinnützige GmbH, Staatlich genehmigte Höhere Berufsfachschule für Pflegeberufe",0,"D-07745","Jena","Keßlerstraße 27"
60602,50.9677399839124,10.7281100241132,16067029,"Staatliches Berufsschulzentrum ""Hugo Mairich"" Gotha",0,"D-99867","Gotha","Kindleber Straße 99 b"
16834,51.1749400017666,11.4181500353935,16068042,"Staatliche Grundschule Rastenberg",1,"D-99636","Rastenberg","Kirchallee 4"
17452,50.9154999819191,11.8693400043386,16074003,"Staatliche Grundschule ""Hermann Sachse"" Bad Klosterlausnitz",1,"D-07639","Bad Klosterlausnitz","Kirchgasse 3a"
10735,50.8801099941508,11.0157500351852,16070028,"Staatliche Grundschule Kirchheim",1,"D-99334","Amt Wachsenburg","Kirchheimer Hauptstr. 3"
20124,51.055730018325,12.4495800176866,16077048,"Landschule Pleißenaue Treben Staatliche Regelschule",0,"D-04617","Treben","Kirchhof 5"
13288,51.3358100137374,9.9879700364489,16061036,"Staatliche Grundschule ""Am Hanstein"" Gerbershausen",1,"D-37318","Gerbershausen","Kirchplatz 10"
23877,50.4250099931029,10.9051799918083,16069012,"Staatliche Regelschule ""Otto Ludwig"" Eisfeld",0,"D-98673","Eisfeld","Kirchplatz 6"
75037,50.8872999906947,11.2049399834149,16071087,"Freie Talschule Tonndorf - Gemeinschaftsschule für Gutes Leben -",0,"D-99438","Tonndorf","Kirchstraße 20"
17329,50.4305299792581,11.1571700084755,16072019,"Staatliche Grundschule Steinach-Südschule",1,"D-96523","Steinach","Kirchstraße 21"
15093,50.4797599979116,11.1642300017012,16072011,"Staatliche Grundschule Lauscha",1,"D-98724","Lauscha","Kirchstraße 45"
13125,50.7180600197604,12.2405200136083,16076093,"Staatliche Grundschule Teichwolframsdorf",1,"D-07987","Mohlsdorf-Teichwolframsdorf","Kirchstraße 5"
12237,50.8208436242555,11.9332445952027,16076049,"Staatliche Grundschule Münchenbernsdorf",1,"D-07589","Münchenbernsdorf","Kleine Schloßstraße 5a"
50360,50.8840300007183,10.5737499848817,16067072,"Salzmannschule Schnepfenthal Staatliches Spezialgymnasium für Sprachen",0,"D-99880","Waltershausen","Klostermühlenweg 2-8"
78386,51.2947199965337,11.4283199661543,16065087,"Klosterschule Roßleben Gymnasium in freier Trägerschaft",0,"D-06571","Roßleben-Wiehe","Klosterschule 5"
50987,50.5095100125808,10.754259969459,16069043,"Hennebergisches Gymnasium ""Georg Ernst"" Schleusingen Staatliches Gymnasium",0,"D-98553","Schleusingen","Klosterstraße 2-4"
11486,51.0551900142129,10.2501100349473,16063104,"Staatliche Grundschule Creuzburg",1,"D-99831","Creuzburg","Klosterstraße 34a"
79018,50.9648299966775,11.3451099634846,16055000,"Freie Waldorfschule Weimar",1,"D-99425","Weimar","Klosterweg 8"
11207,50.8907299912026,10.3689899809514,16063066,"Breitenbergschule Staatliche Grundschule Ruhla",1,"D-99842","Ruhla","Köhlergasse 6"
25756,51.1584100086048,11.1218800168121,16068051,"Staatliche Regelschule ""Christian Gotthilf Salzmann"" Sömmerda",0,"D-99610","Sömmerda","Kölledaer Straße 29"
70471,50.6859999944856,11.2553299736489,16073005,"Fürstin-Anna-Luisen-Schule Förderschule",1,"D-07422","Bad Blankenburg","Königseer Straße 40"
13425,50.3880820459287,10.6593826025727,16069062,"Staatliche Grundschule Bedheim",1,"D-98630","Römhild","Krautweg 10"
23803,51.2585999869083,10.1633499610067,16061113,"Staatliche Regelschule Ershausen",0,"D-37308","Schimberg","Kreisstraße 5"
31344,50.7181800067044,10.4413600035204,16066063,"Staatliches regionales Förderzentrum ""Ludwig Bechstein"" Schmalkalden",1,"D-98574","Schmalkalden","Krötengasse 3"
75826,50.6469399904119,11.3720300380942,16073077,"Freie Gemeinschaftsschule als Wirtschaftsschule Sabel Saalfeld",1,"D-07318","Saalfeld","Kulmbacher Straße 62"
64507,51.3537899923296,11.0971199586508,16065003,"Kyffhäuser-Paracelsus-Schule Berufsbildende Schule in freier Trägerschaft",0,"D-06567","Bad Frankenhausen","Kyffhäuserstraße 61"
65231,50.810420001303,10.2304200223789,16063003,"Fachschule für Gesundheitsfachberufe Bad Salzungen gGmbH",0,"D-36433","Bad Salzungen","Langenfelder Straße 8"
77559,50.9611099823197,10.7089199920692,16067029,"Evangelische Regelschule Gotha",0,"D-99867","Gotha","Langensalzaer Straße 72-76"
26558,50.9778900076532,11.0070600132491,16051000,"Friedrich-Ebert-Schule Erfurt Staatliche Regelschule",0,"D-99092","Erfurt","Langer Graben 19"
18672,50.9778900076532,11.0070600132491,16051000,"Staatliche Grundschule Erfurt",1,"D-99092","Erfurt","Langer Graben 19"
60256,50.9788299961848,11.0072900126722,16051000,"Ernst-Benary-Schule Staatliche Berufsbildende Schule 5 Erfurt",0,"D-99092","Erfurt","Langer Graben 82"
50867,51.1869800189449,11.2376900069591,16068034,"Staatliches Gymnasium ""Prof. Fritz Hofmann"" Kölleda",0,"D-99625","Kölleda","Langer Weg 165"
24661,51.244790005146,10.6577199747123,16064077,"Staatliche Regelschule Schlotheim",0,"D-99994","Nottertal-Heilinger Höhen","Laubgasse 12b"
15004,51.244790005146,10.6577199747123,16064077,"Staatliche Grundschule Schlotheim",1,"D-99994","Nottertal-Heilinger Höhen","Laubgasse 12b"
45807,50.4376400124457,11.1542899865444,16072019,"Nordschule Steinach Staatliche Gemeinschaftsschule",1,"D-96523","Steinach","Lauschaer Straße 35"
17843,50.9329200074696,11.2920899834913,16055000,"Staatliche Grundschule Legefeld",1,"D-99428","Weimar","Legefelder Hauptstraße 20"
51051,51.3809399825432,10.3274999793281,16061115,"Gottfried-Wilhelm-Leibniz-Gymnasium Staatliches Gymnasium Leinefelde",0,"D-37327","Leinefelde-Worbis","Leibnizplatz 1"
60346,50.9824299816892,11.0420699655274,16051000,"Marie-Elise-Kayser-Schule Erfurt Staatliche Berufsbildende Schule 6 für Gesundheit und Soziales",0,"D-99085","Erfurt","Leipziger Straße 15"
14522,50.5778000180506,10.4165400147515,16066042,"Staatliche Grundschule ""Ludwig Chronegk"" Meiningen",1,"D-98617","Meiningen","Leipziger Straße 20"
65138,50.9862300013128,11.0498499642358,16051000,"DRK-Bildungswerk Thüringen gGmbH Staatlich genehmigte Ersatzschule-Rettungsdienstschule",0,"D-99085","Erfurt","Leipziger Straße 56 b"
10332,51.025359994278,11.5227000282717,16071001,"Staatliche Grundschule ""Gotthold Ephraim Lessing"" Apolda",1,"D-99510","Apolda","Lessingstraße 30"
31900,50.9060200075181,12.0883800052518,16052000,"Staatliches regionales Förderzentrum ""Am Brahmetal"" Gera",1,"D-07552","Gera","Leuchtenburgstraße 6"
24781,50.5260299893683,11.1914700135549,16072013,"Staatliche Regelschule ""Lichtetal"" Lichte",0,"D-98724","Neuhaus am Rennweg","Lichtetalstraße 2"
11349,50.8363599799743,10.2944199602559,16063003,"Moorgrundschule Staatliche Grundschule Gumpelstadt",1,"D-36433","Bad Salzungen","Liebensteiner Straße 17"
12357,50.7719100177157,12.0369599629366,16076079,"Staatliche Grundschule Weida-Liebsdorf",1,"D-07570","Weida","Liebsdorfer Straße 10"
13171,51.3796500076445,10.1371300267694,16061045,"Lorenz-Kellner-Schule Heiligenstadt Staatliche Grundschule",1,"D-37308","Heilbad Heiligenstadt","Lindenallee 23"
26243,51.3796500076445,10.1371300267694,16061045,"Lorenz-Kellner-Schule Heiligenstadt Staatliche Regelschule",0,"D-37308","Heilbad Heiligenstadt","Lindenallee 23"
15590,50.6594499809013,11.5715400369705,16075088,"Staatliche Grundschule Ranis",1,"D-07389","Ranis","Lindenstraße 20a"
25125,50.6594499809013,11.5715400369705,16075088,"Staatliche Regelschule Ranis",0,"D-07389","Ranis","Lindenstraße 20a"
60779,50.8053399812455,10.2212099871697,16063003,"Staatliches Berufsbildungszentrum und Medizinische Fachschule Bad Salzungen",0,"D-36433","Bad Salzungen","Lindigallee 1"
19238,50.6109499841048,10.6718100377693,16054000,"Lautenbergschule Suhl Staatliche Grundschule",1,"D-98529","Suhl","Linsenhofer Straße 46"
45147,50.6109499841048,10.6718100377693,16054000,"Lautenbergschule Suhl Staatliche Gemeinschaftsschule",1,"D-98529","Suhl","Linsenhofer Straße 46"
64523,51.3775000075705,10.327269979905,16061115,"IPB-Höhere Berufsfachschule und Berufsfachschule für Pflegeberufe der VHS-Bildungswerk GmbH",0,"D-37327","Leinefelde-Worbis","Lisztstraße 2"
16145,50.4386299990298,11.8564099966811,16075131,"Staatliche Grundschule Gefell",1,"D-07926","Gefell","Lobensteiner Straße 10"
26185,50.9061500108364,11.4430799947321,16071053,"Staatliche Regelschule Magdala/Großschwabhausen (Verbund)",0,"D-99441","Magdala","Lohmaer Straße 1"
24931,51.4431500069067,10.569389970307,16062066,"Staatliche Regelschule ""Löwentor"" Bleicherode",0,"D-99752","Bleicherode","Löwentorstraße 32"
76508,51.1578299809051,11.1381099797497,16068051,"Evangelische Grundschule Sömmerda",1,"D-99610","Sömmerda","Lucas-Cranach-Straße 20 a"
10235,51.0158599871285,12.4670700321286,16077052,"Staatliche Grundschule Windischleuba",1,"D-04603","Windischleuba","Luckaer Straße 24"
13501,50.5095499942589,10.6212600370037,16069051,"Staatliche Grundschule ""Anne Frank"" Themar",1,"D-98660","Themar","Ludwigstraße 19"
63082,50.9991199853826,11.3122000132279,16055000,"Staatliches Berufsbildungszentrum Weimar ""Janusz Korczak""",0,"D-99427","Weimar","Lützendorfer Straße 10"
18607,51.0047999820694,11.0330999880252,16051000,"Gisperslebener Schule Staatliche Grundschule",1,"D-99086","Erfurt","Magdeburger Allee 216"
60539,50.9019300159542,12.0896900128991,16052000,"Staatliche Berufsbildende Schule Gesundheit, Soziales und Sozialpädagogik",0,"D-07552","Gera","Maler-Fischer-Straße 2"
75083,50.934790010068,11.6052600143502,16053000,"Freie Ganztagsschule Leonardo - Gemeinschaftsschule",1,"D-07749","Jena","Marie-Juchacz-Straße 1"
30169,51.3657099806544,11.2890200276342,16065086,"Staatliches regionales Förderzentrum Artern",1,"D-06556","Artern","Marien-Kirchstraße 6"
12824,50.6589000023244,12.1981199887572,16076022,"Staatliche Grundschule ""Johann Wolfgang Goethe"" Greiz",1,"D-07973","Greiz","Marienstraße 12-14"
30594,50.6589000023244,12.1981199887572,16076022,"Staatliches regionales Förderzentrum ""Friedrich Fröbel"" Greiz",1,"D-07973","Greiz","Marienstraße 12-14"
11442,50.9741800096697,10.3187999829272,16056000,"Georgenschule Eisenach Staatliche Grundschule",1,"D-99817","Eisenach","Markt 13"
26404,50.6994099918284,11.8995300270149,16076092,"Staatliche Regelschule ""Franz Kolbe"" Auma",0,"D-07955","Auma-Weidatal","Markt 9"
18337,50.6994099918284,11.8995300270149,16076092,"Staatliche Grundschule Auma",1,"D-07955","Auma-Weidatal","Markt 9"
16067,50.533700017507,11.3777800236725,16073067,"Staatliche Grundschule Probstzella",1,"D-07330","Probstzella","Marktgölitzer Straße 4"
21702,50.864970013902,12.1841500383728,16076061,"Friedrich-Schiller-Schule Staatliche Regelschule Ronneburg",0,"D-07580","Ronneburg","Martin-Luther-Straße 11"
30455,50.864970013902,12.1841500383728,16076061,"Staatliches regionales Förderzentrum Ronneburg Förderschwerpunkt Lernen",1,"D-07580","Ronneburg","Martin-Luther-Straße 11"
12717,50.8625089378716,10.5728614659858,16067019,"Staatliche Grundschule ""Friedrich Buschmann"" Friedrichroda",1,"D-99894","Friedrichroda","Max-Küstner-Straße 2"
62315,50.3521099827961,11.2133399915012,16072018,"Staatliche Berufsbildende Schule Sonneberg",0,"D-96515","Sonneberg","Max-Planck-Straße 49"
45780,50.351310013957,11.212310023239,16072018,"Sibylle-Abel-Schule Sonneberg Staatliche Gemeinschaftsschule",1,"D-96515","Sonneberg","Max-Planck-Straße 51"
27258,51.0135299856838,11.3361699931958,16055000,"Staatliche Regelschule Weimar-Schöndorf",0,"D-99427","Weimar","Max-Reichpietsch-Straße 14"
19314,51.0135299856838,11.3361699931958,16055000,"Staatliche Grundschule Weimar-Schöndorf",1,"D-99427","Weimar","Max-Reichpietsch-Straße 14"
25769,51.044599982465,10.9493299904044,16070013,"Staatliche Regelschule Elxleben",0,"D-99189","Elxleben","Maxim-Gorki-Straße 11"
24555,50.5548100082925,10.2877799841984,16066093,"Staatliche Regelschule ""Vordere Rhön"" Bettenhausen",0,"D-98617","Rhönblick","Meininger Str. 167"
25551,50.6609300154545,10.3716300289946,16066086,"Staatliche Regelschule Wasungen",0,"D-98634","Wasungen","Meininger Straße 21"
78057,50.9760299795196,11.028950023944,16051000,"Evangelisches Ratsgymnasium Staatlich anerkanntes Gymnasium in Trägerschaft der Evangelischen Schulstiftung in Mitteldeutschland",0,"D-99084","Erfurt","Meister-Eckehart-Straße 1"
51154,50.9727399987042,11.0196499670947,16051000,"Königin-Luise-Gymnasium Erfurt Staatliches Gymnasium",0,"D-99084","Erfurt","Melanchthonstraße 3"
23126,50.8286399956926,10.7353499768001,16067053,"Michaelisschule Ohrdruf Staatliche Regelschule",0,"D-99885","Ohrdruf","Michaelisplatz 3"
18066,51.4586699807358,10.2420100151757,16061003,"Staatliche Grundschule ""Am Rotenberg"" Berlingerode",1,"D-37339","Berlingerode","Mitteldorfstraße 1"
26390,51.4586699807358,10.2420100151757,16061003,"Staatliche Regelschule Lindenberg/Eichsfeld",0,"D-37339","Berlingerode","Mitteldorfstraße 1"
45021,51.0041399910134,11.0199300064798,16051000,"Gemeinschaftsschule Otto Lilienthal Staatliche Gemeinschaftsschule Erfurt",1,"D-99089","Erfurt","Mittelhäuser Straße 21"
21308,51.0046199806987,11.0196900325919,16051000,"Otto-Lilienthal-Schule Erfurt Staatliche Regelschule",0,"D-99089","Erfurt","Mittelhäuser Straße 21a"
63829,51.0078221542529,11.0189139357626,16051000,"Berufsbildende Schulen St. Elisabeth des Caritasverbandes für das Bistum Erfurt e.V.",0,"D-99089","Erfurt","Mittelhäuser Straße 76-77"
75533,51.3611700066184,10.8937699584727,16065067,"Freie Gemeinschaftsschule Armin Mueller-Stahl Sondershausen",1,"D-99706","Sondershausen","Mittelstraße 37"
45447,51.1186600062617,10.8378999637616,16064022,"Staatliche Gemeinschaftsschule Herbsleben",1,"D-99955","Herbsleben","Mitteltor 4"
11533,50.9652399974713,10.0685499655402,16063097,"Staatliche Grundschule ""Fritz Erbe"" Gerstungen",1,"D-99834","Gerstungen","Mittelweg 2"
13365,51.3312800141663,10.1197300339675,16061067,"Staatliche Grundschule ""Im Luttertal""",1,"D-37318","Lutter","Mittlau 8"
50526,50.5915999834387,10.4161599792615,16066042,"Henfling-Gymnasium Meiningen Staatliches Gymnasium",0,"D-98617","Meiningen","Moritz-Seebeck-Allee 1"
45177,50.9895499893416,11.3033600390439,16055000,"Staatliche Gemeinschaftsschule ""Carl Zeiss"" Weimar",1,"D-99427","Weimar","Moskauer Straße 63"
19327,50.9895499893416,11.3033600390439,16055000,"Albert-Schweitzer-Schule Weimar Staatliche Grundschule",1,"D-99427","Weimar","Moskauer Straße 63"
40024,50.958779980875,11.0396699751912,16051000,"Staatliches Pierre-de-Coubertin Gymnasium Erfurt Spezialschule für Sport",0,"D-99096","Erfurt","Mozartallee 4"
12450,50.9425000198849,10.7143399821196,16067029,"Staatliche Grundschule ""Andreas Reyher"" Gotha",1,"D-99867","Gotha","Mozartstraße 17"
22449,50.9425000198849,10.7143399821196,16067029,"Staatliche Regelschule ""Andreas Reyher"" Gotha",0,"D-99867","Gotha","Mozartstraße 17"
64193,50.9886700152367,10.3151599738352,16056000,"Krankenpflegeschule am St. Georg Klinikum Eisenach",0,"D-99817","Eisenach","Mühlhäuser Straße 94-95"
12087,50.9981999876901,11.1450900096191,16051000,"Staatliche Grundschule Vieselbach",1,"D-99098","Erfurt","Mühlplatz 2"
12374,50.7373300151608,12.0830900185197,16076079,"Staatliche Grundschule Hohenölsen",1,"D-07570","Weida","Mühlweg 4"
20543,51.3575499883655,11.0923700179403,16065003,"Juri-Gagarin-Schule Bad Frankenhausen Staatliche Regelschule",0,"D-06567","Bad Frankenhausen","Müldener Straße 11"
31826,50.9552999823146,11.0610699798265,16051000,"Waidschule am Muldenweg Staatliches regionales Förderzentrum Erfurt-Süd",1,"D-99099","Erfurt","Muldenweg 10"
64540,50.9843900059277,12.4496500065781,16077001,"Euro Akademie Altenburg, Berufsbildende Ersatzschule",0,"D-04600","Altenburg","Münsaer Straße 33"
76478,50.7177099914838,10.4666900310976,16066063,"Martin-Luther-Schule Schmalkalden Grundschule in Trägerschaft der Evangelischen Kirche von Kurhessen-Waldeck",1,"D-98574","Schmalkalden","Näherstiller Straße 39"
12914,50.6554099873898,12.1046099681894,16076039,"Staatliche Grundschule Naitschau",1,"D-07957","Langenwetzendorf","Naitschau 119"
50180,50.986789996264,10.3061100329766,16056000,"Elisabeth-Gymnasium Eisenach Staatliches Gymnasium",0,"D-99817","Eisenach","Nebestraße 24"
16761,51.1338999826153,11.3613799919194,16068063,"Grundschule im Grünen Staatliche Grundschule Guthmannshausen",1,"D-99628","Buttstädt","Nermsdorfer Straße 73"
45007,50.9910500147338,11.0204599942176,16051000,"Jenaplanschule Erfurt Staatliche Gemeinschaftsschule",1,"D-99089","Erfurt","Nettelbeckufer 25"
50734,50.6574400005198,11.0921199857686,16073112,"Staatliches Gymnasium ""Dr. Max Näder"" Königsee",0,"D-07426","Königsee","Neue Schulstraße 1"
75820,50.6902300057422,11.3191200286705,16073076,"Friedrich-Adolf-Richter-Schule Freie Gemeinschaftsschule der AWO Rudolstadt",1,"D-07407","Rudolstadt","Neue Schulstraße 21"
15077,50.5524499996344,11.0545399743386,16073037,"Staatliche Grundschule Katzhütte",1,"D-98746","Katzhütte","Neuhäuser Straße 18"
30713,50.6856200009052,10.9260200014925,16070029,"Staatliches regionales Förderzentrum ""Dr. Hans Vogel"" Ilmenau Förderschwerpunkt geistige Entwicklung",1,"D-98693","Ilmenau","Neuhäuser Weg 9"
64837,50.6021100099208,10.6874400240776,16054000,"Private Fachschule für Wirtschaft und Soziales - Suhl II, Staatlich anerkannte berufsbildende Ersatzschule",0,"D-98527","Suhl","Neundorfer Straße 28"
25276,50.7774400202453,11.3839200192056,16073109,"Staatliche Regelschule Neusitz",0,"D-07407","Uhlstädt-Kirchhasel","Neusitz 29"
13540,50.5227100013395,10.8819799734661,16069042,"Staatliche Grundschule Schönbrunn",1,"D-98667","Schleusegrund","Neustädter Straße 26"
70605,51.1631200095467,11.1154700401777,16068051,"Finneck-Förderschule Sömmerda Maria Martha, Freie Schule der Stiftung Finneck",1,"D-99610","Sömmerda","Nicolaus-von-Dreyse-Str. 9"
11470,50.9961499837209,10.3107299703689,16056000,"Mosewaldschule Eisenach Staatliche Grundschule",1,"D-99817","Eisenach","Nordplatz 3"
70575,50.7130499885944,10.4575599592447,16066063,"Bentheim-Schule Staatlich anerkanntes Förderzentrum mit den Förderschwerpunkten Sehen, geistige Entwicklung und weiteren Förderschwerpunkten",1,"D-98574","Schmalkalden","Notstraße 11"
76481,50.7265099839896,10.4856000237565,16066063,"Weidenschule - Grundschule in freier Trägerschaft",1,"D-98574","Schmalkalden","Obere Herrenwiese 1"
14639,50.6081800165624,10.1152400160745,16066095,"Staatliche Grundschule Kaltenwestheim",1,"D-36452","Kaltenordheim","Obertorstraße 8"
15800,50.6362300136295,11.2584399950031,16073077,"Staatliche Grundschule Dittrichshütte",1,"D-07318","Saalfeld","Oberwirbacher Weg 1"
24105,50.7177063349859,10.8428508053683,16070057,"Staatliche Regelschule ""Geratal"" Geraberg",0,"D-99331","Geratal","Ohrdrufer Straße 27a"
16187,50.6765900089762,11.8167100343,16075068,"Kleine Grundschule im Grünen Staatliche Grundschule Moßbach",1,"D-07907","Moßbach","Ortsstraße 2"
15617,50.7416800133612,11.5819599999031,16075054,"Staatliche Grundschule Langenorla",1,"D-07381","Langenorla","Ortsstraße 87"
45117,50.8929900037558,11.5812000127422,16053000,"Staatliche Gemeinschaftsschule ""Galileo"" Winzerla",1,"D-07745","Jena","Oßmaritzer Straße 12"
15214,51.5012300161185,10.8195699988024,16062041,"Staatliche Grundschule ""Am Förstemannweg"" Nordhausen",1,"D-99734","Nordhausen","Ostrower Straße 13"
14985,51.166179990939,10.4302200351051,16064075,"Vogteischule Oberdorla Staatliche Grundschule",1,"D-99986","Vogtei","Oststraße 14"
27105,50.6140199818714,10.7110299685556,16054000,"Paul-Greifzu-Schule Suhl Staatliche Regelschule",0,"D-98527","Suhl","Otto-Bruchholz-Straße 2"
30019,51.0036299941147,12.4308300355593,16077001,"Regenbogenschule Altenburg Staatliches regionales Förderzentrum Förderschwerpunkt geistige Entwicklung",1,"D-04600","Altenburg","Otto-Dix-Straße 46"
18443,50.6563599922957,11.9816000070337,16076087,"Rötlein-Grundschule Zeulenroda Staatliche Grundschule",1,"D-07937","Zeulenroda-Triebes","Otto-Grotewohl-Ring 37"
52519,50.8076400173863,10.2193300101065,16063003,"Staatliches Dr.-Sulzberger-Gymnasium Bad Salzungen",0,"D-36433","Bad Salzungen","Otto-Grotewohl-Straße 32"
30245,50.809760010247,10.2151799622063,16063003,"Paul-Geheeb-Schule Staatliches regionales Förderzentrum Bad Salzungen Förderschwerpunkt geistige Entwicklung",1,"D-36433","Bad Salzungen","Otto-Grotewohl-Straße 81"
63773,50.9406899898037,11.2773300387325,16055000,"Evangelische Pflegeschule Weimar-Holzdorf",0,"D-99428","Weimar","Otto-Krebs-Weg 5a"
79111,50.8372599868277,12.0659200251409,16052000,"Freie Waldorfschule Gera",1,"D-07549","Gera","Otto-Rothe-Straße 32"
65035,50.9929599990104,11.3373000413819,16055000,"Grone Gesundheitsakademie Thüringen - gemeinnützig -, Berufsfachschule & Höhere Berufsfachschule",0,"D-99427","Weimar","Otto-Schott-Straße 2"
18876,50.8368700187825,12.0646199919584,16052000,"Erich Kästner Grundschule Gera Staatliche Grundschule",1,"D-07549","Gera","Otto-Worms-Straße 58"
60269,50.9815300167452,10.3360299907327,16056000,"Staatliches Berufsschulzentrum ""Heinrich Ehrhardt""",0,"D-99817","Eisenach","Palmental 14"
64417,50.6375699865807,10.8618199875866,16070029,"Höhere Berufsfachschule für Physiotherapie Stützerbach, Kur-Natur-Lehrinstitut gGmbH",0,"D-98694","Stützerbach","Papiermühlenstraße 3a"
60899,50.9261600025586,11.5894700175102,16053000,"Karl-Volkmar-Stoy-Schule Jena Staatliches Berufsschulzentrum Wirtschaft und Verwaltung",0,"D-07743","Jena","Paradiesstraße 5"
65588,50.8333300057954,10.9551200414799,16070004,"Private Pflegeakademie Arnstadt, Höhere Berufsfachschule für Altenpflege",0,"D-99310","Arnstadt","Parkweg 3"
63019,51.0728899953295,11.2894900009453,16071102,"Staatliche Berufsbildende Schule Weimarer Land/Sömmerda",0,"D-99439","Am Ettersberg","Parkweg 90"
76254,50.9542700140524,11.0622400096908,16051000,"Montessori-Integrationsschule (Grundschule)",1,"D-99097","Erfurt","Paulinzeller Weg 12"
25456,50.4119700148757,11.8194700273776,16075046,"Staatliche Regelschule ""Johann Heinrich Pestalozzi"" Hirschberg",0,"D-07927","Hirschberg","Pestalozzistraße 20"
10149,51.0461300150706,12.3038599604293,16077032,"Staatliche Grundschule Meuselwitz",1,"D-04610","Meuselwitz","Pestalozzistraße 26"
15200,51.5002099804115,10.7961200321075,16062041,"Staatliche Grundschule ""Bertolt Brecht"" Nordhausen",1,"D-99734","Nordhausen","Petersberg 1"
24816,51.4998400032054,10.796520016527,16062041,"Petersbergschule Nordhausen Staatliche Regelschule",0,"D-99734","Nordhausen","Petersberg 2"
15410,51.5290500137625,10.8252199882759,16062041,"Staatliche Grundschule Petersdorf",1,"D-99735","Nordhausen","Petersdorfer Straße 24"
50540,50.6060800145409,10.1548000006726,16066095,"Thüringisches Rhön-Gymnasium Kaltensundheim Staatliches Gymnasium",0,"D-36452","Kaltennordheim","Petersgärten 12"
24571,51.2116000155041,10.4502899993445,16064046,"Petrischule Mühlhausen Staatliche Regelschule",0,"D-99974","Mühlhausen","Petriteich 14"
20920,50.9737099944491,10.318379965759,16056000,"Staatliche Regelschule ""Johann Wolfgang v. Goethe"" Eisenach",0,"D-99817","Eisenach","Pfarrberg 1"
11335,50.7555899912285,9.95430001521217,16063011,"Staatliche Grundschule Buttlar",1,"D-36419","Buttlar","Pfarrer-Wiegel-Straße 5"
11152,50.7990100098769,9.99724997673056,16063078,"Staatliche Grundschule Sünna",1,"D-36414","Unterbreizbach","Pferdsdorfer Straße 4"
25312,50.6449699917086,11.3542899914804,16073077,"Staatliche Regelschule ""Geschwister Scholl"" Saalfeld",0,"D-07318","Saalfeld","Pfortenstraße 16"
76143,50.6449699917086,11.3542899914804,16073077,"Johannesschule Saalfeld, Staatlich anerkannte Ersatzschule in Trägerschaft der Evangelischen Schulstiftung in Mitteldeutschland",1,"D-07318","Saalfeld","Pfortenstraße 16"
62028,50.6438800090197,11.3494099636327,16073077,"Staatliche Berufsbildende Schule für Gesundheit und Soziales-Medizinische Fachschule Saalfeld-""Georgius Agricola""",0,"D-07318","Saalfeld","Pfortenstraße 42 a"
26332,51.3780700188959,10.3237100179883,16061115,"Staatliche Regelschule ""Johann Carl Fuhlrott"" Leinefelde",0,"D-37327","Leinefelde-Worbis","Planckstraße 9"
18083,51.3780700188959,10.3237100179883,16061115,"Staatliche Grundschule ""Johann Carl Fuhlrott"" Leinefelde",1,"D-37327","Leinefelde-Worbis","Planckstraße 9"
60003,50.9817399834198,12.4482000211478,16077001,"Staatliche Berufsbildende Schule für Wirtschaft und Soziales",0,"D-04600","Altenburg","Platanenstraße 3"
10105,50.9806500007308,12.4479599634409,16077001,"Platanen-Schule Altenburg Staatliche Grundschule",1,"D-04600","Altenburg","Platanenstraße 5a"
18913,50.8625600071915,12.0912799761124,16052000,"Pfortener Schule Gera Staatliche Grundschule",1,"D-07551","Gera","Plauensche Straße 165"
61187,50.645969994667,12.195719998421,16076022,"Staatliches Berufsbildungszentrum ""Ernst Arnold"" Greiz-Zeulenroda",0,"D-07973","Greiz","Plauensche Straße 2a"
23580,50.6596799803244,12.2128999662646,16076022,"Staatliche Regelschule Greiz-Pohlitz",0,"D-07973","Greiz","Pohlitzer Straße 85"
12927,50.6596799803244,12.2128999662646,16076022,"Staatliche Grundschule Greiz-Pohlitz",1,"D-07973","Greiz","Pohlitzer Straße 85"
50690,50.735640013933,11.7419499958595,16075073,"Orlatal-Gymnasium Neustadt an der Orla Staatliches Gymnasium",0,"D-07806","Neustadt an der Orla","Pößnecker Straße 24"
30799,51.1047799936984,10.6458900080276,16064003,"Staatliches regionales Förderzentrum ""An der Salza"" Bad Langensalza",1,"D-99947","Bad Langensalza","Poststraße 2-3"
14145,51.1046400159153,10.6442700376009,16064003,"Christoph-Wilhelm-Hufeland-Schule Bad Langensalza Staatliche Grundschule",1,"D-99947","Bad Langensalza","Poststraße 4-5"
18160,51.2750000186614,10.2816399886653,16061063,"Staatliche Grundschule Küllstedt",1,"D-37359","Küllstedt","Poststraße 6"
26273,51.2750000186614,10.2816399886653,16061063,"Staatliche Regelschule Küllstedt",0,"D-37359","Küllstedt","Poststraße 6"
15290,51.4378300129612,10.5753999625218,16062066,"Petermannschule Bleicherode Staatliche Grundschule",1,"D-99752","Bleicherode","Postweg 11"
51408,50.989460009611,11.3079900347199,16055000,"Humboldt-Gymnasium Staatliches Gymnasium Weimar",0,"D-99427","Weimar","Prager Straße 42"
78090,50.9745499868759,10.3167900025457,16056000,"Martin-Luther-Gymnasium Staatlich anerkannte Ersatzschule",0,"D-99817","Eisenach","Predigerplatz 4"
10615,50.8248400179785,10.9551300159447,16070004,"Staatliche Grundschule ""Ludwig Bechstein"" Arnstadt",1,"D-99310","Arnstadt","Prof.-Frosch-Straße 26"
75886,50.7355999903453,11.7484599685988,16075073,"Schlossschule der Arbeiterwohlfahrt (Gemeinschaftsschule)",1,"D-07806","Neustadt an der Orla","Puschkinplatz 1"
11636,51.1371299909135,10.2306399635182,16063076,"Staatliche Grundschule Treffurt",1,"D-99830","Treffurt","Puschkinstraße 24"
16774,51.0667699906355,10.9352899673094,16068057,"Staatliche Grundschule ""Hans Christian Andersen"" Walschleben",1,"D-99189","Walschleben","Querstraße 2a"
25665,50.8950999802421,12.3562799637934,16077043,"Staatliche Regelschule ""Am Eichberg"" Schmölln",0,"D-04626","Schmölln","R.-Seyfarth-Straße 21"
15586,50.6766200161896,11.5414299776505,16075129,"Staatliche Grundschule ""Adolph Diesterweg"" Krölpa",1,"D-07387","Krölpa","Raniser Straße 17"
26117,50.6160600113757,10.5292300090796,16066065,"Staatliche Regelschule Schwarza",0,"D-98547","Schwarza","Rasenmühlenstraße 7a"
50027,51.0405599889534,12.300000010198,16077032,"Veit-Ludwig-von-Seckendorff-Gymnasium Meuselwitz Staatliches Gymnasium",0,"D-04610","Meuselwitz","Rathausstraße 16"
19391,50.9866500184809,11.325950022473,16055000,"Staatliche Grundschule ""Johannes Falk"" Weimar",1,"D-99423","Weimar","Rathenauplatz 3"
27245,50.9867000165333,11.3268100057388,16055000,"Parkschule Weimar Staatliche Regelschule",0,"D-99423","Weimar","Rathenauplatz 4"
76361,50.9730500033931,11.0233599650782,16051000,"Evangelische Grundschule Erfurt",1,"D-99084","Erfurt","Regierungsstraße 42 a"
14612,50.5465500198987,10.0695400359433,16066024,"Staatliche Grundschule Frankenheim",1,"D-98634","Frankenheim","Reichenhäuser Straße 23"
40475,50.9410600089194,10.6956200072056,16067029,"Herzog-Ernst-Schule, Staatliche Kooperative Gesamtschule des Landkreises Gotha",1,"D-99867","Gotha","Reinhardsbrunner Straße 19"
15947,50.6424700052675,11.3587400276953,16073077,"Staatliche Grundschule ""Marco Polo"" Saalfeld",1,"D-07318","Saalfeld","Reinhardtstraße 24"
30678,50.4235300004592,10.7142499604794,16069024,"Staatliches regionales Förderzentrum Hildburghausen",1,"D-98646","Hildburghausen","Reinhold-Huhn-Straße 26"
13395,50.4235300004592,10.7142499604794,16069024,"Staatliche Grundschule ""Astrid Lindgren"" Hildburghausen",1,"D-98646","Hildburghausen","Reinhold-Huhn-Straße 26"
15887,50.762109980342,11.2295599799741,16073076,"Staatliche Grundschule Remda",1,"D-07407","Rudolstadt","Remdaer Hauptstraße 7"
16345,50.7218499811002,10.4580799725177,16066063,"Staatliche Grundschule Schmalkalden",1,"D-98574","Schmalkalden","Renthofstraße 19"
10601,50.8406599801223,10.9446099730882,16070004,"Geschwister-Scholl-Schule Arnstadt Staatliche Grundschule",1,"D-99310","Arnstadt","Richard-Wagner-Straße 6"
51048,51.3150700001582,10.3128500051391,16061118,"St.-Josef-Gymnasium Dingelstädt Staatliches Gymnasium",0,"D-37351","Dingelstädt","Riethstieg 1"
70711,51.3146200176862,10.3117300152367,16061118,"St. Franziskus-Schule Katholische Förderschule mit dem Schwerpunkt Geistige Entwicklung",1,"D-37351","Dingelstädt","Riethstieg 9"
18641,51.0017899987296,11.0138299926249,16051000,"Riethschule Erfurt Staatliche Grundschule",1,"D-99089","Erfurt","Riethstraße 28"
18157,51.4103799925234,10.3959500372391,16061058,"Staatliche Grundschule Kirchworbis",1,"D-37339","Kirchworbis","Riethstraße 5"
11173,50.9527600141953,10.3989700369532,16063092,"Grundschule am Rehberg Staatliche Grundschule Wutha-Farnroda",1,"D-99848","Wutha-Farnroda","Ringstraße 27"
75817,50.7134799802273,11.2486500159133,16073076,"Freie Fröbelschule Rudolstadt/Keilhau - Gemeinschaftsschule",1,"D-07407","Rudolstadt","Robert-Birkner-Straße 17-27"
16894,51.154359998719,11.1180599644399,16068051,"Lindenschule Sömmerda Staatliche Grundschule",1,"D-99610","Sömmerda","Robert-Koch-Platz 2"
62568,50.8869699951666,11.8519799932148,16074041,"Staatliches Berufsschulzentrum Hermsdorf-Schleiz-Pößneck",0,"D-07629","Hermsdorf","Rodaer Straße 45"
11155,50.8173699820495,10.3480400006976,16063099,"Staatliche Grundschule ""Ludwig Bechstein"" Bad Liebenstein",1,"D-36448","Bad Liebenstein","Rohstraße 4"
30889,50.5725500129967,10.4301900278917,16066042,"Pestalozzischule Meiningen Staatliches regionales Förderzentrum Förderschwerpunkt Lernen",1,"D-98617","Meiningen","Röntgenstraße 8"
14519,50.5725500129967,10.4301900278917,16066042,"Schule am Pulverrasen Meiningen Staatliche Grundschule",1,"D-98617","Meiningen","Röntgenstraße 8"
30876,50.5725500129967,10.4301900278917,16066042,"Staatliches regionales Förderzentrum ""Anne Frank"" Meiningen Förderschwerpunkt Sprache",1,"D-98617","Meiningen","Röntgenstraße 8"
70051,50.913659986534,12.104959996466,16052000,"Schule zur individuellen Lebensbewältigung der Lebenshilfe Schulen Gera gGmbH",1,"D-07554","Gera","Röpsen Nr. 7"
18515,50.9889500127123,11.0300899627759,16051000,"Johannesschule Erfurt Staatliche Grundschule",1,"D-99086","Erfurt","Rosa-Luxemburg-Straße 49"
15530,50.6988100151991,11.6108700221455,16075085,"Staatliche Grundschule Pößneck",1,"D-07381","Pößneck","Rosa-Luxemburg-Straße 9"
11725,50.9678999944441,11.9085399861953,16074018,"Staatliche Grundschule ""Herzog Christian"" Eisenberg",1,"D-07607","Eisenberg","Rosa-Luxemburg-Straße 9"
16727,51.1231200169414,11.4182699804279,16068063,"Sophienschule Buttstädt Staatliche Grundschule",1,"D-99628","Buttstädt","Roßplatz 1"
25729,51.1225899872941,11.4205200185164,16068063,"Staatliche Regelschule ""Prof. Gräfe"" Buttstädt",0,"D-99628","Buttstädt","Roßplatz 7"
21865,50.7774400202453,12.0621699616603,16076079,"Staatliche Regelschule ""Max Greil"" Weida",0,"D-07570","Weida","Rudolf-Alander-Straße 2"
12344,50.7774400202453,12.0621699616603,16076079,"Staatliche Grundschule ""Osterburg"" Weida",1,"D-07570","Weida","Rudolf-Alander-Straße 2"
30469,50.7774400202453,12.0621699616603,16076079,"Comenius-Schule Staatliches regionales Förderzentrum Weida Förderschwerpunkt Lernen",1,"D-07570","Weida","Rudolf-Alander-Straße 2"
76189,50.9911800180521,12.429990001223,16077001,"Rahn Education, Freie Grundschule Christian Felix Weiße, Staatlich anerkannte Ersatzschule",1,"D-04600","Altenburg","Rudolf-Breitscheid-Straße 19"
17436,50.9080200134348,11.8542700129814,16074041,"Staatliche Grundschule ""In der Waldsiedlung"" Hermsdorf",1,"D-07629","Hermsdorf","Rudolf-Breitscheid-Straße 26"
50960,50.9083000109104,11.853250019184,16074041,"Staatliches Holzland-Gymnasium Hermsdorf",0,"D-07629","Hermsdorf","Rudolf-Breitscheid-Straße 27"
32014,50.8803500099482,11.624599998642,16053000,"Staatliches regionales Förderzentrum Jena",1,"D-07747","Jena","Rudolf-Breitscheid-Straße 4"
15350,51.4254900074683,10.9298800355428,16062064,"Staatliche Grundschule ""Geschwister Scholl"" Heringen",1,"D-99765","Heringen","Rudolf-Breitscheid-Straße 5"
25019,51.4254900074683,10.9298800355428,16062064,"Staatliche Regelschule Heringen",0,"D-99765","Heringen","Rudolf-Breitscheid-Straße 5"
60959,50.8796600116788,11.6310999969165,16053000,"Staatliche Berufsbildende Schule für Gesundheit und Soziales Jena",0,"D-07747","Jena","Rudolf-Breitscheid-Straße 56-58"
20645,50.8130699819015,10.2326600021835,16063003,"Erste Stadtschule Staatliche Regelschule Bad Salzungen",0,"D-36433","Bad Salzungen","Rudolf-Breitscheid-Straße 9"
24862,51.5006900120064,10.7980399908489,16062041,"Staatliche Regelschule ""Am Förstemannweg"" Nordhausen",0,"D-99734","Nordhausen","Rudolf-Breitscheidt-Straße 7"
70108,50.8339000171208,10.9578299945955,16070004,"Marienstift Arnstadt Emil-Petri-Schule Integratives Förderzentrum",1,"D-99310","Arnstadt","Rudolstädter Str. 30"
75713,50.8339000171208,10.9578299945955,16070004,"Marienstift Arnstadt, Emil-Petri-Schule, Montessori-Gemeinschaftsschule",1,"D-99310","Arnstadt","Rudolstädter Straße 30"
26837,50.8470599822919,12.0609400011883,16052000,"Die Vierte - Staatliche Regelschule Gera",0,"D-07549","Gera","Rudolstädter Straße 51"
60946,50.8836800143512,11.5911500023637,16053000,"Staatliches Berufsbildendes Schulzentrum Jena-Göschwitz",0,"D-07745","Jena","Rudolstädter Straße 95"
14489,50.5076799916605,11.5795600095669,16075134,"Lichtblicke Staatliche Grundschule Ruppersdorf",1,"D-07368","Remptendorf","Ruppersdorf 96"
18863,50.846820008404,12.0593099724778,16052000,"Wilhelm-Busch-Grundschule Gera Staatliche Grundschule",1,"D-07549","Gera","Saalfelder Straße 24"
21145,50.9681400102415,11.8822000231045,16074018,"Staatliche Regelschule ""Karl Christian Friedrich Krause"" Eisenberg",0,"D-07607","Eisenberg","Saasaer Straße 14"
77306,51.0001300047152,11.0271299774885,16051000,"Freie Schule Regenbogen-Regelschule",0,"D-99086","Erfurt","Salinenstraße 141"
50853,51.1602800112033,11.1279599979184,16068051,"Staatliches Gymnasium ""Albert Schweitzer"" Sömmerda",0,"D-99610","Sömmerda","Salzmannstraße 39"
16791,51.1905600136102,11.2480799626783,16068034,"Wippertus-Schule Kölleda Staatliche Grundschule",1,"D-99625","Kölleda","Salzstraße 6-8"
13454,50.4108799902773,10.8140100309691,16069053,"Staatliche Grundschule Veilsdorf",1,"D-98669","Veilsdorf","Schackendorfer Straße 254"
18563,50.9581800042457,11.0602600365226,16051000,"Grundschule am Kleinen Herrenberg Erfurt Staatliche Grundschule",1,"D-99099","Erfurt","Scharnhorststraße 41"
52039,50.957550020403,11.0607799659766,16051000,"Staatliches Gymnasium Hannah Arendt Erfurt",0,"D-99099","Erfurt","Scharnhorststraße 43"
14613,50.479909992069,10.5004400156906,16066094,"Staatliche Grundschule Jüchsen",1,"D-98631","Grabfeld","Schaufelhammer 8"
75007,50.943820001997,11.0856199874941,16051000,"Aktiv-Schule Erfurt, Freie Gemeinschaftsschule",1,"D-99097","Erfurt","Schellrodaer Weg 4"
70545,50.5782100188444,11.820490021175,16075098,"Staatlich anerkannte private Förderschule für Geistigbehinderte mit Mehrfachbehinderung",1,"D-07907","Schleiz","Schießhausweg 2"
76328,50.5782100188444,11.820490021175,16075098,"ABC - Freie Integrative Grundschule Schleiz",1,"D-07907","Schleiz","Schießhausweg 2"
12734,50.8098600063519,10.7746200313673,16067053,"Staatliche Grundschule ""Adolf von Trützschler"" Wölfis",1,"D-99885","Ohrdruf","Schillbachstrasse 16"
50210,50.9683500188255,11.8977699949861,16074018,"Friedrich-Schiller-Gymnasium Eisenberg Staatliches Gymnasium",0,"D-07607","Eisenberg","Schillerstraße 1"
45003,50.9668999914857,11.0276700235101,16051000,"Friedrich-Schiller-Schule Erfurt Staatliche Gemeinschaftsschule",1,"D-99096","Erfurt","Schillerstraße 33"
75503,51.203239989096,10.4553199794401,16064046,"Schulzentrum Janusz Korczak, Staatlich anerkannte freie Gemeinschaftsschule",1,"D-99974","Mühlhausen","Schillerweg 59"
20707,50.7094399867158,9.9484699824585,16063032,"Rhön-Ulstertal-Schule Geisa Staatliche Regelschule",0,"D-36419","Geisa","Schleider Straße 7"
25023,51.4248699980904,10.7366500099826,16062066,"Staatliche Regelschule ""Hainleite"" Wolkramshausen",0,"D-99752","Bleicherode","Schleifweg 3"
15665,50.595909999961,11.819259976884,16075076,"Staatliche Grundschule Oettersdorf",1,"D-07907","Oettersdorf","Schleizer Straße 29"
13574,50.4697800010768,10.8519099796433,16069058,"Staatliche Grundschule Brattendorf",1,"D-98673","Auengrund","Schleusinger Straße 30"
40101,50.9488599984668,11.3468000066219,16055000,"Musikgymnasium Schloss Belvedere Staatliches Spezialgymnasium Weimar",0,"D-99425","Weimar","Schloss Belvedere 1"
17839,50.957965234009,11.2175271703087,16071103,"Staatliche Grundschule ""Grammetal"" Isseroda",1,"D-99428","Grammetal","Schlossgasse 24"
21012,50.9137099845864,10.2054499975431,16063097,"Schlossparkschule Staatliche Regelschule Marksuhl",0,"D-99834","Gerstungen","Schlossmauer 14"
20303,50.8345799990159,10.9513900107478,16070004,"Staatliche Regelschule ""Am Schloss Neideck"" Arnstadt",0,"D-99310","Arnstadt","Schlossplatz 2"
11512,50.919640013445,10.0461599743209,16063103,"Staatliche Grundschule Dippach",1,"D-99837","Werra-Suhl-Tal","Schloßplatz 3"
50957,50.856390004445,11.7311299646884,16074094,"Staatliches Gymnasium ""J. H. Pestalozzi"" Stadtroda",0,"D-07646","Stadtroda","Schloßstraße 15"
76268,50.9577899942909,12.4574699869647,16077001,"Freie Schule Känguru - Integrative Grundschule Altenburg",1,"D-04600","Altenburg","Schloßstraße 5"
14686,50.6440400195513,10.2396199993042,16066086,"Grundschule am Hahnberg Oepfershausen Staatliche Grundschule",1,"D-98634","Wasungen","Schlossstraße 64"
14012,51.0555000189019,11.7007400336213,16074011,"Staatliche Grundschule ""Im Saaletal"" Camburg",1,"D-07774","Dornburg-Camburg","Schmiedehäuser Straße 23"
12687,50.8579000043021,10.6380800021058,16067092,"Staatliche Grundschule ""Christian Ludwig Brehm"" Schönau v. d. Walde",1,"D-99887","Georgenthal v. d. Walde","Schmiedsgasse 28"
51081,50.651259981399,11.9844900034296,16076087,"Staatliches Gymnasium ""Friedrich Schiller"" Zeulenroda",0,"D-07937","Zeulenroda-Triebes","Schopperstraße 26"
10481,51.0021399850967,11.4920500067491,16071001,"Staatliche Grundschule im Moorental Herressen-Sulzbach",1,"D-99510","Apolda","Schötener Straße 142"
19014,50.9535699994087,11.6130100058452,16053000,"Schule am Rautal Jena Staatliche Grundschule",1,"D-07743","Jena","Schreckenbachweg 3"
15363,51.5765399912263,10.7813800362783,16062065,"Staatliche Grundschule Ilfeld",1,"D-99768","Ilfeld","Schröderstraße 35"
70185,50.9762300136389,11.3251700025635,16055000,"Johannes-Landenberger-Schule Staatlich anerkannte Förderschule für Geistigbehinderte",1,"D-99423","Weimar","Schubertstraße 1 b"
50687,50.693100011299,11.5936599632696,16075085,"Staatliches Gymnasium ""Am Weißen Turm"" Pößneck",0,"D-07381","Pößneck","Schulplatz 1"
11109,50.7994700087232,10.2990999958939,16063004,"Staatliche Grundschule Barchfeld",1,"D-36456","Barchfeld-Immelborn","Schulplatz 1"
20814,50.8394599849542,10.1680600038581,16063003,"Staatliche Krayenburg Regelschule Tiefenort",0,"D-36469","Bad Salzungen","Schulplatz 1"
11982,51.0502099902603,11.1290000244645,16068055,"Staatliche Grundschule Udestedt",1,"D-99198","Udestedt","Schulplatz 3"
50480,51.1086600185878,10.6497699910075,16064003,"Salza-Gymnasium Bad Langensalza Staatliches Gymnasium",0,"D-99947","Bad Langensalza","Schulplatz 6"
22196,50.8987699965475,10.5549200393981,16067072,"Staatliche Regelschule Waltershausen",0,"D-99880","Waltershausen","Schulplatz 8"
14068,50.8486799946282,11.601250028052,16074079,"Staatliche Grundschule ""Am Trompeterfelsen"" Rothenstein",1,"D-07751","Rothenstein","Schulstr. 18"
45853,50.9409399800659,11.7575799821678,16074009,"Staatliche Gemeinschaftsschule Bürgel",1,"D-07616","Bürgel","Schulstraße 1"
17479,50.8374699954118,11.7223899866093,16074103,"Staatliche Grundschule ""Hügelland"" Tröbnitz",1,"D-07646","Tröbnitz","Schulstraße 1"
13335,51.3236700004543,10.0566599844287,16061111,"Staatliche Grundschule ""Brüder Grimm"" Wüstheuterode",1,"D-37318","Wüstheuterode","Schulstraße 1"
18187,51.4770400111922,10.4862900220259,16061116,"Staatliche Grundschule ""Im Bodetal"" Großbodungen",1,"D-37345","Am Ohmberg","Schulstraße 1"
25680,50.7569900205159,10.3300500057312,16066013,"Staatliche Regelschule Breitungen",0,"D-98597","Breitungen","Schulstraße 1"
10736,50.8215600116279,11.0155099774783,16070004,"Staatliche Grundschule Marlishausen",1,"D-99310","Arnstadt","Schulstraße 1"
26431,50.679929987844,12.0909300316549,16076039,"Bio-Landschule Staatliche Regelschule Langenwetzendorf",0,"D-07957","Langenwetzendorf","Schulstraße 10"
18203,51.3946300192711,10.3982699804,16061037,"Staatliche Grundschule Gernrode",1,"D-37339","Gernrode","Schulstraße 11"
50464,50.8056400114697,11.5827800014907,16074044,"Staatliches Gymnasium ""Leuchtenburg"" Kahla",0,"D-07768","Kahla","Schulstraße 18"
77006,50.6786499874101,12.2799499948881,16076093,"Freie Regelschule Reudnitz",0,"D-07987","Mohlsdorf-Teichwolframsdorf","Schulstraße 18"
17899,50.8612600159185,11.2438099697436,16071003,"Staatliche Grundschule Tannroda",1,"D-99438","Bad Berka","Schulstraße 2-4"
20873,50.7145000159342,10.1190200029495,16063015,"Staatliche Regelschule Dermbach",0,"D-36466","Dermbach","Schulstraße 2"
17572,50.6080800204575,10.4960299611539,16066038,"Grundschule am Dolmar Kühndorf Staatliche Grundschule",1,"D-98547","Kühndorf","Schulstraße 2"
16325,50.8241799850129,10.4414900068387,16066074,"Staatliche Grundschule Brotterode",1,"D-98596","Brotterode-Trusetal","Schulstraße 2"
15393,51.4924200072384,10.6899599594483,16062063,"Staatliche Grundschule Werther",1,"D-99735","Werther","Schulstraße 2"
12660,50.9426299812936,10.5255399600256,16067088,"Staatliche Grundschule ""Hörseltal"" Mechterstädt",1,"D-99880","Mechterstädt","Schulstraße 2"
30652,51.3683700195366,10.3359600018412,16061115,"Staatliches regionales Förderzentrum Eichsfeld",1,"D-37327","Leinefelde-Worbis","Schulstraße 20"
20304,50.8811500206968,10.9696400123507,16070028,"Staatliche Regelschule ""Wilhelm Hey"" Ichtershausen",0,"D-99334","Amt Wachsenburg","Schulstraße 22"
10718,50.8811500206968,10.9696400123507,16070028,"Wilhelm-Hey-Grundschule Ichtershausen Staatliche Grundschule",1,"D-99334","Amt Wachsenburg","Schulstraße 22"
16328,50.6110799874231,10.3860400292957,16066042,"Staatliche Grundschule ""Landsbergblick"" Walldorf",1,"D-98639","Walldorf","Schulstraße 26"
13905,50.7205100081491,10.8910399726085,16070034,"Staatliche Grundschule Martinroda",1,"D-98693","Martinroda","Schulstraße 2a"
11079,51.3618199813002,11.0484200115541,16065085,"Kyffhäuserland-Grundschule Staatliche Schule Rottleben",1,"D-99707","Kyffhäuserland","Schulstraße 3"
17447,50.8938499870216,11.856319975041,16074041,"Friedensschule Hermsdorf Staatliche Grundschule",1,"D-07629","Hermsdorf","Schulstraße 30"
14909,51.2162500020192,10.2205400216489,16064074,"Käthe-Kollwitz-Grundschule Lengenfeld unterm Stein Staatliche Grundschule",1,"D-99976","Südeichsfeld unterm Ste","Schulstraße 30"
11832,51.0768799907886,10.8541699921965,16067009,"Staatliche Grundschule ""Geschwister Scholl"" Dachwig",1,"D-99100","Dachwig","Schulstraße 36"
11353,50.6278100147042,10.1629000204443,16066095,"Staatliche Grundschule ""Andreas Fack"" Kaltennordheim",1,"D-36452","Kaltennordheim","Schulstraße 4"
20633,50.6278100147042,10.1629000204443,16066095,"Staatliche Regelschule ""Andreas Fack"" Kaltennordheim",0,"D-36452","Kaltennordheim","Schulstraße 4"
23820,51.3634399936364,10.0748700043535,16061097,"Staatliche Regelschule Uder",0,"D-37318","Uder","Schulstraße 4"
25545,50.7576000135195,10.4815900374584,16066023,"Staatliche Regelschule Floh",0,"D-98593","Floh-Seligenthal","Schulstraße 4"
16341,50.7576000135195,10.4815900374584,16066023,"Staatliche Grundschule Floh",1,"D-98593","Floh-Seligenthal","Schulstraße 4"
45690,50.7765100061784,11.0798399947024,16070048,"Staatliche Gemeinschaftsschule Stadtilm",1,"D-99326","Stadtilm","Schulstraße 4"
10794,50.7769200069722,11.0809999662829,16070048,"Staatliche Grundschule Stadtilm",1,"D-99326","Stadtilm","Schulstraße 4a"
11799,50.9225999987324,11.8794500044917,16074109,"Staatliche Grundschule am Mühltal Weißenborn",1,"D-07639","Weißenborn","Schulstraße 5"
14102,50.8058799853576,11.5860900150547,16074044,"Friedensschule Kahla Staatliche Grundschule",1,"D-07768","Kahla","Schulstraße 5"
15527,50.6503199928675,11.7184700219512,16075073,"Grundschule am Rittergut Staatliche Grundschule Knau",1,"D-07806","Neustadt an der Orla","Schulstraße 5"
11498,51.0443699830418,10.3855699721657,16063006,"Staatliche Grundschule Berka vor dem Hainich",1,"D-99826","Berka v. d. Hainich","Schulstraße 5"
22572,50.9426000159898,10.5245600317253,16067088,"Staatliche Regelschule ""Bertha von Suttner"" Mechterstädt",0,"D-99880","Mechterstädt","Schulstraße 5"
11905,51.1149500082782,10.934220017369,16068014,"Laurentius-Schule GeRA-Aue Staatliche Grundschule Gebesee",1,"D-99189","Gebesee","Schulstraße 54"
11142,50.715550016945,9.94918998794128,16063032,"Rhön-Ulstertal-Schule Geisa Staatliche Grundschule",1,"D-36419","Geisa","Schulstraße 6"
13708,50.5813000074501,11.0093999891586,16070058,"Staatliche Grundschule Großbreitenbach",1,"D-98701","Großbreitenbach","Schulstraße 6"
45717,50.5813000074501,11.0093999891586,16070058,"Staatliche Gemeinschaftsschule Großbreitenbach",1,"D-98701","Großbreitenbach","Schulstraße 6"
12570,50.8973500183305,10.8475900305657,16067089,"Staatliche Grundschule Wandersleben",1,"D-99869","Drei Gleichen","Schulstraße 6"
78207,51.0003600041384,12.4404600041175,16077001,"Christliches Spalatin-Gymnasium Altenburg",0,"D-04600","Altenburg","Schulstraße 7"
23910,50.5030300051454,10.6164000419045,16069051,"Staatliche Regelschule ""Anne Frank"" Themar",0,"D-98660","Themar","Schulstraße 7"
20770,51.0748299868195,10.3347100086206,16063104,"Staatliche Regelschule ""Thomas Müntzer"" Mihla",0,"D-99831","Amt Creuzburg","Schulstraße 7"
10225,50.975490017317,12.4868000263752,16077036,"Staatliche Grundschule Nobitz",1,"D-04603","Nobitz","Schulstraße 8"
14462,50.4020799977715,11.6960999796615,16075136,"Grundschule am Rennsteig Staatliche Grundschule Blankenstein",1,"D-07366","Blankenstein","Schulstraße 8"
12177,50.9288599812094,12.0063299741626,16076003,"Bergschule Staatliche Grundschule Bad Köstritz",1,"D-07586","Bad Köstritz","Schulstraße 8"
14819,51.1486499948188,10.5644599863163,16064076,"Staatliche Grundschule Großengottern",1,"D-99991","Unstrut-Hainich","Schulstraße 8"
11293,50.8273099972062,10.0220899982481,16063082,"Vitus-Grundschule Vacha Staatliche Grundschule",1,"D-36404","Vacha","Schulstraße 9-11"
17570,50.6452499891842,10.596380033808,16066092,"Staatliche Grundschule Benshausen",1,"D-98544","Zella-Mehlis","Schulstraße 9"
21024,51.1379600088754,10.2332999604909,16063076,"Staatliche Regelschule Treffurt",0,"D-99830","Treffurt","Schulstraße 9"
10751,50.8518199812862,11.1005800082817,16070041,"Staatliche Grundschule ""Astrid Lindgren"" Osthausen",1,"D-99310","Osthausen-Wülfershausen","Schulstraße 99a"
15407,51.5476600181068,10.7640699812975,16062065,"Heinz-Sielmann-Grundschule Niedersachswerfen Staatliche Grundschule",1,"D-99768","Harztor","Schulstraße 9a"
24375,50.4644699815961,11.5377599613451,16075133,"Staatliche Regelschule ""Geschwister Scholl"" Wurzbach",0,"D-07343","Wurzbach","Schulweg 3"
30229,50.8366999918766,10.085719958919,16063101,"Staatliches regionales Förderzentrum ""Marianne Frostig"" Dorndorf",1,"D-36460","Krayenberggemeinde","Schulweg 6"
10255,50.9950299938186,12.304960001402,16077044,"Staatliche Grundschule Posa",1,"D-04617","Starkenberg","Schulweg 7"
24631,51.2331299815481,10.4548400316643,16064071,"Staatliche Regelschule Unstruttal Ammern",0,"D-99974","Unstruttal","Schützentorstraße 20"
40745,50.9826899883257,11.3224799983774,16055000,"Thüringenkolleg Weimar",1,"D-99423","Weimar","Schwanseestraße 11"
64567,51.0109300031378,11.0382100152961,16051000,"Fachschule im Fachbereich Technik, Staatlich anerkannte Ersatzschule der Erfurt Bildungszentrum gGmbH",0,"D-99086","Erfurt","Schwerborner Straße 35"
20601,51.3681999926307,10.8873500073735,16065067,"Staatliche Regelschule ""Johann Karl Wezel"" Östertal",0,"D-99706","Sondershausen","Segelteichstraße 36"
17032,51.3681999926307,10.8873500073735,16065067,"Staatliche Grundschule ""Östertal"" Sondershausen",1,"D-99706","Sondershausen","Segelteichstraße 36"
23893,50.4284000119327,10.7275500291621,16069024,"Staatliche Regelschule ""Joliot-Curie"" Hildburghausen",0,"D-98646","Hildburghausen","Seminarstraße 2"
11169,50.828569841137,10.3341868370612,16063099,"Staatliche Grundschule ""Friedrich Fröbel"" Schweina",1,"D-36448","Bad Liebenstein","Sennfelder Straße 6"
11340,50.6841599991006,9.92664996065508,16063032,"Staatliche Grundschule ""Konstantin Gutberlet"" Geismar",1,"D-36419","Geisa","Setzelbacher Straße 3"
60033,51.0010800096211,12.4224000202596,16077001,"Johann-Friedrich-Pierer-Schule Berufliches Schulzentrum für Gewerbe und Technik",0,"D-04600","Altenburg","Siegfried-Flack-Straße 33a/b"
10028,51.0004799910823,12.423989983473,16077001,"Wilhelm-Busch-Schule Altenburg Staatliche Grundschule",1,"D-04600","Altenburg","Siegfried-Flack-Straße 33c"
30010,51.0006099944006,12.4210900126123,16077001,"Staatliches regionales Förderzentrum ""Erich Kästner"" Altenburg",1,"D-04600","Altenburg","Siegfried-Flack-Straße 39a"
15497,51.4332200081242,10.6963199799398,16062066,"Staatliche Grundschule Nohra",1,"D-99752","Bleicherode","Sondershäuser Landstraße 105"
61756,51.216449994229,10.4860300153894,16064046,"Berufsschulcampus Unstrut-Hainich Staatliche berufsbildende Schule",0,"D-99974","Mühlhausen","Sondershäuser Landstraße 39"
50750,50.6438500018063,11.3575399906177,16073077,"Staatliches Gymnasium ""Heinrich Böll"" Saalfeld",0,"D-07318","Saalfeld","Sonneberger Straße 15"
14882,51.2297700118412,10.589950024425,16064037,"Sophienschule Körner Staatliche Grundschule",1,"D-99998","Körner","Sophienstraße 7"
64728,50.9718708125746,11.0481792289264,16051000,"Private Fachschule für Wirtschaft und Soziales Erfurt II  HBFS für Podologie",0,"D-99099","Erfurt","Sorbenweg 3-4"
64303,50.9718708125746,11.0481792289264,16051000,"Private Fachschule für Wirtschaft und Soziales Erfurt, Staatlich genehmigte/anerkannte berufsbildende Ersatzschule",0,"D-99099","Erfurt","Sorbenweg 3-4"
15860,50.6312600060512,11.1791999969535,16073084,"Staatliche Grundschule Sitzendorf",1,"D-07429","Sitzendorf","Sorbitztal 1"
70801,50.9937100117066,11.0223900112428,16051000,"Christophorus-Schule in der Christophoruswerk Erfurt gGmbH, Förderschule mit dem Förderschwerpunkt Geistige Entwicklung",1,"D-99089","Erfurt","Spittelgartenstraße 1"
11385,50.7460000043483,10.0668399734734,16063062,"Staatliche Grundschule Oechsen",1,"D-36404","Oechsen","Stadtlengsfelder Straße 94b"
11469,50.9820700208573,10.294179986368,16056000,"Hörselschule Eisenach Staatliche Grundschule",1,"D-99817","Eisenach","Stedtfelder Straße 81a"
65198,51.551359999716,10.7707999789951,16062065,"Private Berufsschule Mechatroniker/in für Kältetechnik",0,"D-99768","Harztor","Steinstraße 19"
14552,50.4097700167493,10.4133200228276,16066094,"Staatliche Grundschule Behrungen",1,"D-98631","Grabfeld","Steinweg 12"
14042,50.9977500052181,11.6005199642854,16074036,"Staatliche Grundschule ""Talblick"" Stiebritz",1,"D-07778","Hainichen","Stiebritz 29"
76135,50.3384400207263,10.645920015241,16069056,"Stiftung Deutsche Landerziehungsheime Hermann-Lietz-Schule Haubinda, staatlich anerkannte Grundschule",1,"D-98663","Westhausen","Stiftung 1"
77905,50.3384400207263,10.645920015241,16069056,"Stiftung Deutsche Landerziehungsheime Hermann-Lietz-Schule Haubinda, staatl. anerkannte Regelschule",0,"D-98663","Westhausen","Stiftung 1"
64867,50.3384400207263,10.645920015241,16069056,"Stiftung Deutsche Landerziehungsheime Hermann-Lietz-Schule Haubinda, Fachoberschule und Berufliches Gymnasium",0,"D-98663","Westhausen","Stiftung 1"
31879,51.0190200065351,11.0340000367882,16051000,"Schule am Zoopark Staatliches regionales Förderzentrum Erfurt Förderschwerpunkt geistige Entwicklung",1,"D-99087","Erfurt","Stotternheimer Straße 12"
10118,51.0921299835165,12.3310200089267,16077028,"Staatliche Grundschule Lucka",1,"D-04613","Lucka","Straße der Bauarbeiter 1a"
20063,51.0921299835165,12.3310200089267,16077028,"Staatliche Regelschule Lucka",0,"D-04613","Lucka","Straße der Bauarbeiter 1a"
11246,50.8084100209216,10.2482899884918,16063003,"Parkschule Bad Salzungen Staatliche Grundschule",1,"D-36433","Bad Salzungen","Straße der Einheit 133"
20887,50.809550001663,10.2547400306234,16063003,"Staatliche Regelschule ""Werratal"" Bad Salzungen",0,"D-36433","Bad Salzungen","Straße der Einheit 18"
25695,50.9543900009964,12.280570004266,16077003,"Staatliche Regelschule Dobitschen",0,"D-04626","Dobitschen","Straße der Einheit 3"
45450,51.3053800171732,10.5594999951122,16064072,"Staatliche Gemeinschaftsschule Menteroda",1,"D-99996","Menteroda","Straße der Einheit 36"
13588,50.2493199800371,10.6861499653599,16069063,"Staatliche Grundschule Hellingen",1,"D-98663","Heldburg","Straße der Einheit 55"
15467,51.4535299881611,10.6523999807669,16062066,"Staatliche Grundschule Wipperdorf",1,"D-99752","Wipperdorf","Straße der Einheit 86"
61790,51.5078000032845,10.7719700088594,16062041,"Staatliches Berufsschulzentrum Nordhausen",0,"D-99734","Nordhausen","Straße der Genossenschaften 168"
14609,50.5248600014135,10.5373899594589,16066081,"Staatliche Grundschule Vachdorf",1,"D-98617","Vachdorf","Straße der Jugend 122"
25802,51.1849300149758,11.2525600061065,16068034,"Staatliche Regelschule ""Friedrich Ludwig Jahn"" Kölleda",0,"D-99625","Kölleda","Straße der Jugend 15"
17599,50.5405500021486,10.75152000913,16069043,"Staatliche Grundschule Erlau",1,"D-98553","Schleusingen","Straße der Jugend 3"
14492,50.477119991778,11.4436699968966,16073046,"Staatliche Grundschule ""Karl Oertel"" Lehesten",1,"D-07349","Lehesten","Straße der Jugend 46"
13471,50.3517499800547,10.6891100344663,16069049,"Staatliche Grundschule ""Am Straufhain"" Streufdorf",1,"D-98646","Straufhain","Straße der Jugend 7"
21247,50.9103599893443,10.9087999681518,16067087,"Staatliche Regelschule ""Prof. Herman Anders Krüger"" Neudietendorf",0,"D-99192","Nesse-Apfelstädt","Straße des Friedens 15"
12673,50.9103599893443,10.9087999681518,16067087,"Staatliche Grundschule Neudietendorf",1,"D-99192","Nesse-Apfelstädt","Straße des Friedens 15"
16037,50.6184100036595,11.4325799846242,16073038,"Staatliche Grundschule Kaulsdorf",1,"D-07338","Kaulsdorf","Straße des Friedens 29"
45815,50.6184100036595,11.4325799846242,16073038,"Staatliche Gemeinschaftsschule Kaulsdorf",1,"D-07338","Kaulsdorf","Straße des Friedens 29"
10764,50.7789700109414,10.9066699589168,16070043,"Staatliche Grundschule Plaue",1,"D-99338","Plaue","Straße des Friedens 4"
70228,50.9953000168294,10.3130299646002,16056000,"Förderschule der Diako Kinder- und Jugendhilfe gem. GmbH, Regionales Förderzentrum mit dem Förderschwerpunkt geistige Entwicklung Johannes Falk",1,"D-99817","Eisenach","Stregdaer Allee 50"
14836,51.2496000021927,10.3461600236344,16064073,"Staatliche Grundschule Anrode",1,"D-99976","Anrode","Struther Straße 4"
12447,50.8220500176875,10.7293999990119,16067053,"Staatliche Grundschule ""Carl Eduard Meinung"" Ohrdruf",1,"D-99885","Ohrdruf","Südstraße 28"
16389,50.7372000118425,10.3730700399601,16066022,"Staatliche Grundschule ""Thomas Müntzer"" Fambach",1,"D-98597","Fambach","Süffig 9a"
76271,50.8932800176056,11.6050099821784,16053000,"Freie Ganztagsgrundschule STEINMALEINS",1,"D-07747","Jena","Susanne-Bohl-Straße 2"
60302,50.9865700132151,11.0245299949425,16051000,"Ludwig-Erhard-Schule Erfurt Staatliche Berufsbildende Schule 3",0,"D-99089","Erfurt","Talstraße 24"
17062,51.3672100060467,10.8543300027281,16065067,"Staatliche Grundschule ""Franzberg"" Sondershausen",1,"D-99706","Sondershausen","Talstraße 34"
30156,51.3672100060467,10.8543300027281,16065067,"Staatliches regionales Förderzentrum ""Johann Heinrich Pestalozzi"" Sondershausen",1,"D-99706","Sondershausen","Talstraße 34"
45087,50.9214199944034,11.5690500249942,16053000,"Jenaplan-Schule Jena Staatliche Gemeinschaftsschule",1,"D-07745","Jena","Tatzendpromenade 9"
17149,51.3064000109706,10.8109300168282,16065067,"Staatliche Grundschule Hohenebra",1,"D-99706","Sondershausen","Thalebraer Straße 5"
14403,51.1395700048374,10.6390699886899,16064003,"Staatliche Grundschule ""Albert Schweitzer"" Thamsbrück",1,"D-99947","Bad Langensalza","Thamsbrücker Hauptstraße 18"
11366,50.8442100094837,10.1228900114646,16063101,"Staatliche Grundschule ""Am Kieselbach"" Kieselbach",1,"D-36460","Krayenberggemeinde","Theo-Neubauer-Straße 2"
15244,51.5148099984577,10.7694599641345,16062041,"Staatliche Grundschule ""Albert Kuntz"" Salza",1,"D-99734","Nordhausen","Theodor-Neubauer-Straße 2"
13168,51.3723100169433,10.1373499679087,16061045,"Theodor-Storm-Grundschule Heiligenstadt Staatliche Grundschule",1,"D-37308","Heilbad Heiligenstadt","Theodor-Storm-Straße 18"
51364,50.9829600113365,11.3178800099147,16055000,"Friedrich-Schiller-Gymnasium Weimar Staatliches Gymnasium",0,"D-99423","Weimar","Thomas-Mann-Straße 2"
16775,51.2594300048703,11.0819700039374,16068064,"Wippertal-Grundschule Staatliche Grundschule Kindelbrück",1,"D-99638","Kindelbrück","Thomas-Müntzer-Straße 1"
70905,51.1868399992524,10.4957500055878,16064046,"Schulzentrum ""Janusz Korczak"", Staatlich anerkannte Förderschule",1,"D-99998","Mühlhausen","Thomas-Müntzer-Weg 6"
76388,50.9824799797416,11.3381399918991,16055000,"Freie Ganztagsgrundschule Anna Amalia",1,"D-99425","Weimar","Tiefurter Allee 6"
12002,51.1079600039441,10.9960699970816,16068025,"Heinz-Sielmann-Grundschule Haßleben Staatliche Grundschule",1,"D-99189","Haßleben","Töpfermarkt 25"
10091,50.9844400039802,12.4372499866585,16077001,"Martin-Luther-Schule Staatliche Grundschule Altenburg",1,"D-04600","Altenburg","Torgasse 2"
51201,50.8908200128427,12.0868300237166,16052000,"Karl-Theodor-Liebe-Gymnasium Gera Staatliches Gymnasium",0,"D-07545","Gera","Trebnitzer Straße 18"
18293,51.3212799845828,10.3178499780213,16061118,"Staatliche Grundschule ""Erich Kästner"" Dingelstädt",1,"D-37351","Dingelstädt","Triftweg 2"
50344,50.8234300142263,10.7328199831456,16067053,"Staatliches Gymnasium ""Gleichense"" Ohrdruf",0,"D-99885","Ohrdruf","Trinitatisstraße 2"
62225,50.6985500085626,11.3217599928946,16073076,"Staatliches Berufsbildungszentrum des Landkreises Saalfeld-Rudolstadt",0,"D-07407","Rudolstadt","Trommsdorffstraße 1"
77259,50.9763399842085,11.0377999725928,16051000,"Edith-Stein-Schule Staatlich anerkannte katholische Regelschule",0,"D-99084","Erfurt","Trommsdorffstraße 26"
78060,50.9763399842085,11.0377999725928,16051000,"Edith-Stein-Schule Staatlich anerkanntes katholisches Gymnasium",0,"D-99084","Erfurt","Trommsdorffstraße 26"
60675,50.950599997747,10.6909399715676,16067029,"Staatliche Fachschule für Bau, Wirtschaft und Verkehr",0,"D-99867","Gotha","Trützschlerplatz 1"
51022,50.9453799999065,11.393640009404,16071056,"Lyonel-Feininger-Gymnasium Staatliches Gymnasium Buttelstedt/Mellingen (Verbund)",0,"D-99441","Mellingen","Umpferstedter Straße 18a"
17932,50.9453799999065,11.393640009404,16071056,"Lyonel-Feininger-Grundschule Staatliche Grundschule Mellingen",1,"D-99441","Mellingen","Umpferstedter Straße 18a"
45090,50.8909799814648,11.6130799947368,16053000,"Lobdeburgschule Jena Staatliche Gemeinschaftsschule",1,"D-07747","Jena","Unter der Lobdeburg 4"
17959,51.3548200025013,10.4828999612866,16061074,"Staatliche Grundschule Deuna",1,"D-37355","Niederorschel","Unterer Koppenhagen 93"
25919,50.3653499951425,11.1748999968054,16072018,"Bürgerschule Sonneberg Staatliche Regelschule",0,"D-96515","Sonneberg","Unterer Markt 4"
51168,51.0045600081815,11.0132499649251,16051000,"Staatliches Gymnasium ""Albert Schweitzer"" Erfurt",0,"D-99089","Erfurt","Vilniuser Straße 19"
50150,50.8237999914325,10.0244800141195,16063082,"Staatliches Gymnasium ""Johann Gottfried Seume"" Vacha",0,"D-36404","Vacha","Völkershäuser Straße 9"
26180,51.073809993022,11.3384799618919,16071102,"Staatliche Regelschule ""Am Lindenkreis"" Buttelstedt",0,"D-99439","Am Ettersberg","Volkmarsener Platz 1"
17812,51.073809993022,11.3384799618919,16071102,"Gustav-Steinacker-Grundschule Buttelstedt Staatliche Grundschule",1,"D-99439","Buttelstedt","Volkmarsener Platz 1"
76208,51.001629988198,11.0267600002823,16051000,"Regenbogen Freie Schule Erfurt",1,"D-99086","Erfurt","Vollbrachtstraße 5"
30562,50.946089989015,10.6813499846874,16067029,"Regenbogenschule Gotha Staatliches regionales Förderzentrum Förderschwerpunkt geistige Entwicklung",1,"D-99867","Gotha","von-Zach-Straße 18-21"
60599,50.945779984326,10.6798499592952,16067029,"Staatliches Berufsschulzentrum ""Gotha West""",0,"D-99867","Gotha","von-Zach-Straße 61"
12045,50.9861999940994,10.9327499991901,16051000,"Bergkreisschule Alach Staatliche Grundschule",1,"D-99090","Erfurt","Vor dem Hirtstor 18"
50030,50.9945300132942,12.4367599805988,16077001,"Lerchenberggymnasium Altenburg Staatliches Gymnasium",0,"D-04600","Altenburg","W.-Borchert-Straße 2-4"
18816,50.9225800078933,12.0566900410022,16052000,"Astrid-Lindgren-Grundschule Gera Staatliche Grundschule",1,"D-07552","Gera","Wagnerstraße 1"
17602,50.5185400045098,10.8016599671923,1,"Staatliche Grundschule Hinternah",1,"D-98553","Schleusingen","Waldauer Straße 27"
25649,50.8890199991358,12.4378300143582,16077012,"Staatliche Regelschule Gößnitz",0,"D-04639","Gößnitz","Waldenburger Str. 43"
16607,50.8890199991358,12.4378300143582,16077012,"Staatliche Grundschule Gößnitz",1,"D-04639","Gößnitz","Waldenburger Str. 43"
23864,50.4306800153249,10.7226799757791,16069024,"Staatliche Regelschule ""Dr. Carl Ludwig Nonne"" Hildburghausen",0,"D-98646","Hildburghausen","Waldstraße 11"
13438,50.4306800153249,10.7226799757791,16069024,"Staatliche Grundschule I Hildburghausen",1,"D-98646","Hildburghausen","Waldstraße 11"
12360,50.7939400061937,12.1019700039653,16076084,"Gebrüder-Grimm-Grundschule Staatliche Grundschule Wünschendorf",1,"D-07570","Wünschendorf","Waldstraße 15"
31811,51.0023100120026,11.0067900321478,16051000,"Schule am Andreasried Staatliches regionales Förderzentrum Erfurt Förderschwerpunkt körperliche und motorische Entwicklung",1,"D-99089","Erfurt","Warschauer Straße 4"
50177,50.9721100148615,10.3250300001004,16056000,"Staatliches Gymnasium ""Ernst Abbe"" Eisenach",0,"D-99817","Eisenach","Wartburgallee 60"
45030,50.955520007273,10.9947400405047,16051000,"Gemeinschaftsschule ""Steigerblick"" Hochheim Staatliche Gemeinschaftsschule Erfurt",1,"D-99094","Erfurt","Wartburgstraße 71"
25202,50.6580800007368,11.091629979709,16073112,"Staatliche Regelschule Königsee",0,"D-07426","Königsee","Wasserluft 3a"
21131,51.0399699867889,11.816190021027,16074116,"Staatliche Regelschule ""Am Stadtpark"" Schkölen",0,"D-07619","Schkölen","Weg am Stadtpark 2"
11755,51.0399699867889,11.816190021027,16074116,"Staatliche Grundschule ""Am Stadtpark"" Schkölen",1,"D-07619","Schkölen","Weg am Stadtpark 2"
14416,50.4842399994304,11.6611500418098,16075135,"Grundschule im Park Staatliche Grundschule Ebersdorf",1,"D-07929","Saalburg-Ebersdorf","Weg der Jugend 6"
60272,50.9820900116964,11.0268999780654,16051000,"Andreas-Gordon-Schule Erfurt Staatliche Berufsbildende Schule 4",0,"D-99084","Erfurt","Weidengasse 8"
15377,51.5584899818331,10.5902500127397,16062062,"Staatliche Grundschule ""Thomas Müntzer"" Klettenberg",1,"D-99755","Hohenstein","Weidenstraße 42"
13441,50.4242199987286,10.9048899779585,16069012,"Staatliche Grundschule Eisfeld",1,"D-98673","Eisfeld","Weihbach 10"
10512,51.0587700088782,11.4380800218499,16071101,"Staatliche Grundschule Pfiffelbach",1,"D-99510","Ilmtal-Weinstraße","Weimarer Straße 9"
20243,51.0587700088782,11.4380800218499,16071101,"Staatliche Regelschule Pfiffelbach",0,"D-99510","Pfiffelbach","Weimarer Straße 9"
19358,50.9602399826796,11.3452699740162,16055000,"Parkschule Weimar Staatliche Grundschule",1,"D-99425","Weimar","Weimarische Straße 19-21"
21458,51.102809994995,11.1438599653281,16068048,"Staatliche Regelschule Schloßvippach",0,"D-99195","Schloßvippach","Weimarische Straße 4"
17872,51.0058772064788,11.1969406790668,16071103,"Staatliche Grundschule im grünen Herzen Niederzimmern",1,"D-99428","Grammetal","Weimarische Straße 42"
26224,51.0058772064788,11.1969406790668,16071103,"Wartenbergschule Niederzimmern Staatliche Regelschule",0,"D-99428","Niederzimmern","Weimarische Straße 42"
50704,50.7222099838416,11.3334499817963,16073076,"Gymnasium Fridericianum Rudolstadt Staatliches Gymnasium",0,"D-07407","Rudolstadt","Weinbergstraße 1a"
26233,51.4999500156846,10.4475900206936,16061116,"Staatliche Regelschule ""Dr. Hermann Iseke"" Bischofferode",0,"D-37345","Am Ohmberg","Weißenborner Straße 1"
40517,50.9946600166125,11.0310600004304,16051000,"Staatliche Integrierte Gesamtschule Erfurt",1,"D-99086","Erfurt","Wendenstraße 23"
18653,50.9949299977137,11.0325199603255,16051000,"Grundschule am Johannesplatz Erfurt Staatliche Grundschule",1,"D-99086","Erfurt","Wendenstraße 24"
64780,50.9965300192109,11.0213899663749,16051000,"Freie Berufsbildende Schule Adolph Kolping",0,"D-99089","Erfurt","Wermutmühlenweg 11"
20200,51.0293600061114,11.5098899656487,16071001,"Staatliche Regelschule ""Werner Seelenbinder"" Apolda",0,"D-99510","Apolda","Werner-Seelenbinder-Straße 6"
10388,51.0293600061114,11.5098899656487,16071001,"Staatliche Grundschule ""Christian Zimmermann"" Apolda",1,"D-99510","Apolda","Werner-Seelenbinder-Straße 6"
21968,50.933820014323,12.0069499835404,16076003,"Staatliche Regelschule ""Hans Settegast"" Bad Köstritz",0,"D-07586","Bad Köstritz","Werner-Sylten-Straße 14"
13604,50.4495799916096,10.9592199655991,16069012,"Staatliche Grundschule Sachsenbrunn",1,"D-98678","Eisfeld","Werrastraße 30"
50657,51.5056699940496,10.7869700113251,16062041,"Herder-Gymnasium Nordhausen Staatliches Gymnasium",0,"D-99734","Nordhausen","Wiedigsburg 7/8"
10495,51.0169099881392,11.4267600101543,16071101,"Staatliche Grundschule Kromsdorf/Oßmannstedt",1,"D-99510","Ilmtal-Weinstraße","Wielandstraße 15"
60719,50.4220399914412,10.7291699995888,16069024,"Staatliches Berufsbildendes Schulzentrum Hildburghausen",0,"D-98646","Hildburghausen","Wiesenstraße 20"
11742,50.9692999818219,11.8916999883446,16074018,"Staatliche Grundschule ""Martin Luther"" Eisenberg",1,"D-07607","Eisenberg","Wiesenstraße 23"
12480,50.9556000125388,10.7001500067767,16067029,"Staatliche Grundschule ""Peter Andreas Hansen"" Gotha",1,"D-99867","Gotha","Wilhelm-Bock-Straße 18"
18576,50.9674599864369,11.0495700086698,16051000,"Staatliche Grundschule ""Wilhelm Busch"" Erfurt",1,"D-99099","Erfurt","Wilhelm-Busch-Straße 34"
18610,50.9634199929253,11.0467500011654,16051000,"Grundschule am Schwemmbach Erfurt Staatliche Grundschule",1,"D-99096","Erfurt","Wilhelm-Leibl-Straße 1"
15227,51.5059600078994,10.7991599807512,16062041,"Staatliche Grundschule ""Käthe Kollwitz"" Nordhausen",1,"D-99734","Nordhausen","Wilhelm-Nebelung-Straße 44"
24854,51.5059600078994,10.7991599807512,16062041,"Staatliche Regelschule ""Käthe Kollwitz"" Nordhausen",0,"D-99734","Nordhausen","Wilhelm-Nebelung-Straße 44"
20946,50.9890000107647,10.3000100191217,16056000,"Wartburg-Schule Eisenach Staatliche Regelschule",0,"D-99817","Eisenach","Wilhelm-Pieck-Straße 1"
19388,50.976599990845,11.3110800233256,16055000,"Pestalozzischule Weimar Staatliche Grundschule",1,"D-99425","Weimar","William-Shakespeare-Straße 17"
64150,51.3766300079304,10.1409899770007,16061045,"Eichsfeld Klinikum gGmbH, Bildungsinstitut -Berufsbildende Schule-",0,"D-37308","Heilbad Heiligenstadt","Windische Gasse 112"
30529,50.9663500129089,11.0402400284262,16051000,"Schule am Südpark Staatliches überregionales Förderzentrum Erfurt Förderschwerpunkt Hören",1,"D-99096","Erfurt","Windthorststraße 41"
64314,50.9785000006568,11.0060100122383,16051000,"Berufsschule für Gastgewerbe und Tourismus - DEHOGA Thüringen KOMPETENZZENTRUM gGmbH",0,"D-99092","Erfurt","Witterdaer Weg 3"
51296,50.9233000133761,11.5919099895246,16053000,"Adolf-Reichwein-Gymnasium Jena Staatliches Gymnasium",0,"D-07749","Jena","Wöllnitzer Straße 1"
40037,50.9155099982934,11.5903200263112,16053000,"Staatliches Sportgymnasium mit angegliederten Regelschulklassen ""Joh. Chr. Fr. GutsMuths"" Jena",0,"D-07749","Jena","Wöllnitzer Straße 40"
18910,50.880359984413,12.0892099813042,16052000,"Bergschule Gera Staatliche Grundschule",1,"D-07545","Gera","Ziegelberg 19"
30322,50.9951599971369,10.302640008881,16056000,"Pestalozzischule Eisenach Staatliches regionales Förderzentrum",1,"D-99817","Eisenach","Ziegeleistraße 53"
18996,50.9215300068825,11.6046199722237,16053000,"Talschule Jena Staatliche Grundschule",1,"D-07749","Jena","Ziegenhainer Straße 52"
17122,51.2851500004926,10.9072499866165,16065023,"Staatliche Grundschule Westerengel",1,"D-99718","Westerengel","Zinsweg 1"
50237,50.9110100059356,10.9132899860448,16067087,"von-Bülow-Gymnasium Neudietendorf Staatliches Gymnasium",0,"D-99192","Nesse-Apfelstädt","Zinzendorfstraße 19"
13738,50.6949900047365,10.9256200170729,16070029,"Staatliche Grundschule ""Ziolkowski"" Ilmenau",1,"D-98693","Ilmenau","Ziolkowskistraße 14"
24015,50.6962500143313,10.9205499714802,16070029,"Staatliche Regelschule ""Heinrich Hertz"" Ilmenau",0,"D-98693","Ilmenau","Ziolkowskistraße 27"
10148,51.0525099844916,12.3560900298674,16077032,"Staatliche Grundschule Wintersdorf",1,"D-04610","Meuselwitz","Zirndorfer Straße 49"
64493,51.0023499936808,12.4384399654523,16077001,"Berufsfachschule für Arzthelferinnen des Innova Sozialwerkes e.V Höhere Berufsfachschule für Altenpflege des Innova Sozialwerkes e.V.",0,"D-04600","Altenburg","Zschernitzscher Straße 13"
64810,51.0023499936808,12.4384399654523,16077001,"Krankenpflegeschule Altenburg gGmbH",0,"D-04600","Altenburg","Zschernitzscher Straße 13"
14642,50.5792000054285,10.3324899777456,16066042,"Staatliche Grundschule Herpf",1,"D-98617","Meiningen","Zum Eichig 3"
13831,50.6507499845004,11.0032999753036,16070029,"Staatliche Grundschule ""Thomas Müntzer"" Gehren",1,"D-98694","Ilmenau","Zum Haideteich 3"
76099,51.185700018511,10.7045700357783,16064033,"THEPRA Grundschule Kirchheilingen Dalton",1,"D-99947","Kirchheilingen","Zum Kindergarten 16"
45703,50.7489399987967,10.805880003984,16070057,"Staatliche Gemeinschaftsschule Gräfenroda",1,"D-99330","Geratal","Zum Wolfstal 43"
10691,50.7498499801149,10.8088499637362,16070057,"Staatliche Grundschule ""An der Burglehne"" Gräfenroda",1,"D-99330","Geratal","Zum Wolfstal 48"
45027,50.9617999805891,11.0939500066889,16051000,"Gemeinschaftsschule ""Am Urbach"" Staatliche Gemeinschaftsschule Erfurt",1,"D-99098","Erfurt","Zur Steinbrücke 8"
